no,district,title,description,address,phone
1,수도권,인천 개항장역사문화공간,"1883년 인천 개항장 126년 세월의 흔적이 쌓인 개항기 역사와 문화의 만남의 장소이다. 이곳은 옛 일본영사관인 중구청과 일본 제1은행 인천지점, 일본 제18은행 인천지점 ,일본 제58은행 인천지점 등 근대 건축을 그대로 볼 수 있는 장소이다. 이뿐아니라 일본우선주식회사나 인천의 아트플렛폼, 제물포구락부 등 역사의 흔적들을 직접 눈으로 볼 수 있고 귀로 들을 수있는 곳이다. 이곳은 인천문화 관광해설사가 배치되어 예약을 받아 해설을 하고 있다. 보다 깊은 해설을 들으며 도보관광을 즐길 수 있어 가족 단위나 여행단체의 큰 호응을 얻고 있다.",인천광역시 중구 제물량로232번안길 27,인천 중구 문화유산팀 032-760-6448
2,수도권,인천 월미문화의거리,"인천의 대표적인 관광지 중의 하나인 월미도에는 월미도 문화의 거리, 월미공원, 월미테마파크 등이 있다. 월미도 문화의 거리는 보행자 전용 도로로 차량 출입시간을 제외하고는 차량의 출입이 통제되어 있다. 초상화를 그려주는 길거리 화가들이 나와 있고 앉아 쉴 수 있는 벤치가 있는 작은 쉼터 같은 거리다. 월미공원에 위치한 월미 전망대에서는 인천항 일대의 전경을 다 볼 수 있어 월미도를 간다면 한 번쯤 들러서 전망을 구경하는 것도 좋다. 놀이와 체험이 가능한 월미테마파크에는 다양한 놀이기구가 있어 연인들의 데이트 장소나 가족들의 나들이 장소로 인기 있다. 월미 달빛 음악분수는 월미문화 거리 안에 있는 분수로 크지는 않지만 월미도의 볼거리 중 하나이다. 5월1일부터 10월 31일까지 진행하고 매주 월요일은 정기점검을 한다. 음악분수는 음악에 맞춰 불줄기들이 춤을 추는데 물과 음악이 조합되어 멋진 장관을 이룬다. 저녁이 되면 음악에 따라 6~7가지 빛의 분수 쇼가 펼쳐진다. 그러므로 낮에 감상하는 것보다는 밤에 보는 모습이 더욱더 멋지다.",인천광역시 중구 월미로 252,032-764-0842
3,수도권,인천 연안부두해양광장,"서해 도서로 운항하는 여객선의 출발지이다. 싱싱한 생선과 젓갈 등을 저렴한 가격으로 구입할 수 있는 인천종합어시장과 수협에서 직영하는 회센타 (일반시중가의 60~70%선), 바다낚시를 즐길 수 있는 남항부두가 있는가 하면 해수탕도 여러 곳 있다. 최근에 관광특구로 지정되었다. 우렁찬 뱃고동 소리를 가장 가까운 거리에서 들을수 있는 곳, 연안부두는 해양도시로 인천 중구의 상징이며 미지의 섬으로 떠나고 싶은 사람이 많이 방문하는 곳이기도 하다.연안부두에 있는 인천종합어시장은 사시사철 늘 사람들이 붐빈다. 좀 더 싱싱하고 저렴한 가격에 생선을 사려는 이들이 이 곳을 찾기 때문이다. 인천 앞바다 일대는 황금어장이라는 찬사가 부끄럽지 않은 바다낚시 천국이다. 포인트는 덕적도, 풍도, 승봉도, 자월도, 이작도, 육도, 삼도, 창서, 부도, 백암, 영흥도를 모두 아우른다. 남항부두가 바로 바다낚시배들이 출항하는 곳, 개인적으로 출조하는 것은 물론 배 위에서 해상 세미나를 하거나 캠프할 곳, 해양레포츠를 알선하는 등, 여러가지 목적으로 선박을 빌려 주기도 한다. 연안부두내 친수공원에는 봄~가을 매일밤 돌고래 분수쇼가 이루어지고 친수공원내에 장미덩쿨과 소규모 동물원이 있다.",인천광역시 중구 연안부두로 70 (항동7가),032-777-1330
4,수도권,인천 하나개해수욕장,"하나개해수욕장은 샘꾸미 선착장에서 차로 10분이면 도착할 수 있다. 무의도에서 가장 큰 갯벌이라는 뜻의 하나개 해수욕장에는 1km 길이의 해변에 밀가루처럼 입자가 고운 모래가 깔려있는 해수욕장이다. 해변가에 원두막 형태로 지은 방갈로는 물이 들면 수상가옥에 떠 있는 것처럼 색다른 체험을 할 수 있다. 갯벌을 조금만 파내려가도 흰 속살의 동죽조개가 입을 오므린채 나타나는 등 소라, 방게, 바지락 등이 지천이다. 저녁이면 하나개 주위는 온통 붉은 빛으로 물든다. 해수욕장이 서녘을 바라보고 있어 바다로 떨어지는 해를 감상하노라면 한 폭의 수채화가 절로 그려진다. 또한 이곳은 드라마 ''천국의 계단'' 촬영지로도 유명해 이 곳 세트장을 찾는 사람들이 많아져 또 하나의 새로운 명소로 자리잡고 있다.",인천광역시 중구 무의동 산189번지 (무의동),032-751-8833
5,수도권,양평 세미원,"세미원 연꽃박물관은 연꽃이라는 단일한 테마 아래 연꽃관련 생활 용품, 고서, 음식 등의 유물이 전시된 세계 유일의 박물관이다. 세미원 6만2천평 정원은 수질정화 능력이 뛰어난 연꽃을 주로 식재하여 한강물 정화에 기여하고 있다. 연꽃 가득한 여름이 가장 아름다우며 각 계절에 맞는 테마로 정원을 꾸며 사계절 내내 볼거리를 제공한다. 또한 생태환경교육, 체험교육, 전시활동을 겸하는 복합문화공간을 지향한다.",경기도 양평군 양서면 양수로 93,031-775-1835
6,수도권,시흥 갯골생태공원,"시흥갯골생태공원은 경기도 유일의 내만갯벌과 옛염전의 정취를 느낄 수 있는 아름다운 공원이다. 이곳에서는 칠면초, 나문재, 퉁퉁마디 등의 염생식물을 관찰할 수 있으며, 붉은발농게, 방게 등을 관찰할 수 있다. 시흥갯골은 아름다운 경관과 생태적 우수성으로 시흥시의 생태환경 1등급 지역이며, 2012년 2월 국가 해양습지보호지역으로 지정되었다.",경기도 시흥시 동서로 287 (장곡동),031-488-6900
7,수도권,고양 행주산성,덕양산 정상에 축조된 행주산성(사적)은 임진왜란 당시 의병과 승명을 포함한 2천3백명으로 왜군 3만 여명을 크게 물리친 임진왜란 3대첩 중 하나인 행주대첩이 일어났던 곳이다. 행주대첩제 매년 3월 14일 행주산성에서는 임진왜란때 왜군을 격파하여 나라를 위기에서 벗어나게 하는데 큰 공을 세운 충장공 권율 도원수의 행주대첩을 기념하기 위한 제례행사와 그 밖의 여러 가지 문화 행사가 개최되고 있다. 행주대첩제는 이 행사에서 가장 중요한 행주대첩을 기념하는 제례이다.각계 인사들이 참석한 가운데 권율 도원수의 영정이 모셔져 있는 충장사에서 행해지는 이 제례에는 고양시장이 초헌관이 되어 장군의 영혼을 불러들이기 위해 향을 피우고 제례를 지낸다.,경기도 고양시 덕양구 행주로15번길 89,031-8075-4652
8,수도권,고양 행주산성역사공원,"한강을 직접 만져볼 수 있는 친수공간(빨랫돌머리) 군초소 전망대(행호정), 철책 포토존, 바람개비 언덕을 갖춘 역사공원이다. 대덕생태공원~행주산성역사공원~군순찰로~장항습지 18.2km 코스가 생태테마관광 10선으로 지정되어 있다.",경기도 고양시 덕양구 행주외동 140-8,031-8075-3404
9,수도권,고양 행주송학커뮤니티센터,"해찬송학 김 전시관은 한국 최초의 김 전시관으로 김의 역사와 배경에 대해 소개하고 있는 곳이다. 관람객들은 전시관에 서 김에 대한 역사와 배경에 대해 관람할 수 있고, 대한민국을 체험할 수 있는 다양한이벤트를 경험해볼 수 있다.1층에 는 김 유물관, 김 학술관이 있어 김의 역사에 대해 알 수 있으 며, 2층에는 김 판매실이 있어 직접 설명을 듣고 맛볼 수 있다. 3층에는 대한민국의 전통을 느낄 수 있는 한복전통문화 체험관 등이 있고, 4층에는 웨딩/화보촬영을 위한 공간이 마련되어 있다.",경기도 고양시 덕양구 행주산성로 38 (행주외동54-5),031-8075-3405
10,수도권,수원 화성행궁,"행궁은 정조가 현륭원에 행차할때 임시 거처로 사용하던 곳으로 그 어느 행궁보다 크고 웅장하였으며 활용도도 높아 경복궁의 ''부궁''이라는 말까지 생겨난 곳이다. 정조 18~20년에 화성을 축성하고 팔달산 동쪽에 행궁을 건립했는데 평상시에는 유수부(지금의 시청) 관청으로 사용되던 곳이다. 화성은 창룡문(동), 화서문(서), 팔달문(남), 장안문(북) 4개의 문루로 이어져 있으며, 뛰어난 건축술로 인해 세계 문화 유산으로 선정 되었을 뿐 아니라 우리나라 최초의 신도시 개발 사례로도 평가받고 있다. 조선 22대 정조는 아버지 사도 세자가 뒤주 속에서 비극적인 삶을 마감하자 그 무덤을 당시 최고의 명당이라 평가받던 수원(현재의 화성시)으로 이장하였고, 능 주위에 살던 주민들을 팔달산 아래 현재의 위치로 옮기면서 도시와 성곽을 축성하였다. 화성의 국궁체험과 팔달산 정상의 효원의 종 타종, 행궁의 여러가지 전통문화체험은 우리 문화재를 입체적으로 접근할 수 있도록 도와준다. 그외에도 대장금의상 입어보기, 소원성취 나무와 스탬프 찍기등 다양한 체험을 할 수 있다.",경기도 수원시 팔달구 정조로 825 (남창동),화성행궁 매표소 031-228-4677화성행궁 안내소 031-228-4480
11,수도권,수원 화성장안문,화성의 북문이자 정문이다. 장안이라는 말은 수도라는 뜻으로 또 다른 서울이라는 의미를 담고 있다. 장안문이 정문이라는 것은 왕이 수도인 한양에서 수원으로 들어오는 문으로 쓰였기 때문이다. 서울의 숭례문(崇禮門)보다 크기가 큰 것이 특징이다.,경기도 수원시 팔달구 정조로 910 (장안동),031-251-4513
12,수도권,수원 화성연무대,"유네스코 세계문화유산 수원 화성(華城) 안에는 연무대(동장대, 東將臺)가 있다. 연무대는 화성의 동문인 ''창룡문(蒼龍門)''과 북쪽 수문인 ''화홍문(華虹門) 사이의 높은 언덕에 위치하고 있으며, 사방이 트여 있어 화성의 동쪽에서 성 안을 살펴보기에 좋은 군사요충지이다. 1796년에 수원화성이 완공된 뒤, 연무대는 병사들의 훈련장이었다. 칼과 창, 활을 다루는 공간으로 200년이 넘은 소문난 활터이다. 또한 연무대는 사직공원(社稷公園)의 황학정(黃鶴亭), 남산의 석호정(石虎亭), 전주의 천양정(穿楊亭)과 더불어 유서깊은 곳으로 알려져 있다.",경기도 수원시 팔달구 창룡대로103번길 20 (매향동),031-228-2763
13,수도권,용인 한국민속촌,"한국민속촌은 오랜시간을 거쳐 전승되어 온 우리 문화 속 생활풍속을 한데 모아 내외국인 관광객에게 우리의 전통문화를 소개하기 위해 1974년에 설립되었다. 높은 교육적 가치와 관광적 가치를 지닌 한국민속촌은 설립 이후부터 지금까지 생생한 문화체험과 아름다운 자연 속의 전통문화 관광지로서 사랑받고 있다.[조선시대로 떠나는 시간여행]한국민속촌 조선시대 마을은 각 지방의 실제 가옥을 실물 그대로 이건, 복원하여 조성했다. 농악놀이, 줄타기, 마상무예, 전통혼례 등 민족 고유의 멋과 흥겨움이 살아있는 전통예술공연도 관람할 수 있다.[새롭게 만나는 전통]웰컴투조선, 추억의 그때 그놀이 등 전통을 재해석해 만들어진 다양한 테마와 콘셉의 시즌축제가 특별한 즐거움을 선사한다.[살아있는 전통체험]전통생활, 민속놀이, 전통공예를 경험해 볼 수 있는 프로그램이 가득하다. 이와 함께 일일체험학습, 청소년수련활동 인증프로그램 등 단체관람객을 위한 프로그램도 마련하고 있다.[놀이가 가득한 전통문화 테마파크]어린이 관람객을 위한 놀이동산을 운영하고 있다. 스릴만점인 15개 어트랙션을 1년 내내 즐길 수 있으며, 겨울철에는 눈썰매장도 개장한다.[충실하고 건강하게, 맛있는 대한민국]조선시대의 저잣거리를 그대로 재현한 장터에서 각 지방의 다양한 토속음식을 만날 수 있다. 천연 조미료를 사용한 친환경 전통의 맛을 즐길 수 있다.",경기도 용인시 기흥구 민속촌로 90 (보라동),031-288-0000
14,충청권,보령 대천해수욕장,"충남 보령시 해수욕장4길 일원은 대천해수욕장이다. 이미 1930년대부터 외국인을 위한 휴양단지로 자리 잡은 서해안 최대의 해변이다. 백사장 길이만 3.5km에 폭이 100m에 달한다. 경사가 완만하고 모래가 깨끗하다. 특히 다보도와 어우러지는 노을이 아름답다. 대천해수욕장은 크게 노을광장, 머드광장 구역으로 나뉘는데 피서철에는 각기 다른 즐길거리가 펼쳐진다. 해마다 열리는 보령머드축제는 국내를 넘어 세계인의 관심을 끌고 있다. 머드검문소, 머드디스코텍 등 보령의 머드를 테마로 다채로운 행사가 펼쳐진다. 해수욕장 끝자락에는 보령머드체험관이 있다. 머드사우나와 머드온돌방, 머드셀프팩과 머드마사지 등이 가능하다.대천해수욕장에서는 해수욕 외에도 즐길 거리가 많다. 대천 짚트랙은 바다로 돌진하는 듯한 오싹한 설렘을 선사한다. 스카이 바이크는 대천해수욕장과 대천항을 오가는 전국 최초의 해상 레일 바이크다. 수면에서 8~15m 높이에 선로를 달아 바닷길을 달리게 했다. 40분간 2.3km를 왕복 운행하는데, 가능하면 바닷물이 차 있는 만조 시 탑승하기를 추천한다.",충청남도 보령시 머드로 123,041-933-7051
15,충청권,예산 예당관광지,"조선 후기의 실학자 이중환은 택리지에서 내포 땅이 충청도에서 가장 살기 좋은 곳이라고 썼다. 내포 땅이 바로 지금의 예산이다. 예당관광지는 현재 국민관광지 지정 면적 5만 6천 평 중 1만 3천 평이 조성되었다. 주요 시설은 식당, 여관, 각종 편의시설 등 대중이 이용할 수 있는 것들이며 현재까지 등산로와 주차장 시설 등 6개 시설은 조성 완료, 테마를 간직한 관광지로 변모해가고 있다. 특히 예당 저수지 주변의 산책로와 팔각정은 부산 태종대 같은 운치를 느낄 수 있도록 조성하였으며 가족단위 산책과 친구, 연인과 함께 찾아가기에 좋다.하절기에는 인근 지역 주민과 사시사철 낚시객의 명소로 활용되고 있으며 찾는 이로 하여금 호평과 함께 관광명소로 거듭나고 있다.예당관광지는 예산군 응봉면 등촌리, 후사리 일원의 4만3천평 규모에 1986년부터 조성하기 시작되었다. 현재 공공편익시설인 주차장, 야영장, 잔디광장, 산책로등 부대시설이 다양하게 조성되어 있으며 전국 제일의 저수지인 예당저수지와 접해있어 친환경적인 관광지로 개발되고있다.* 낚시 - 1962년에 만들어진 우리나라에서 가장 큰 저수지인 예당 저수지는 예산군과 당진시의 농경지에 물을 공급한다 하여 예산군과 당진시의 앞머리를 따서 이름을 지었다. 지난 40여 년 동안 중부권 최고의 낚시터로 알려져 있다. 겨울철 얼음낚시 외에 초봄부터 늦가을까지 계속 낚시할 수 있다. 주로 붕어, 잉어를 비롯해 뱀장어, 가물치, 동자개, 미꾸라지 등 민물에 사는 물고기 대부분이 있다.",충청남도 예산군 예당관광로 102 예당호휴게소,041-339-8287
16,충청권,예산 대흥슬로시티,"충남 예산군 대흥면 중리길 49에는 충남의 보물 같은 마을이 자리했다. 슬로시티답게 자연과 역사, 문화와 전통을 고루 갖춘 동네다. 봉수산 정상에서 예당호까지 이어지는 낱낱의 풍경은 그 증거처럼 존재한다. 보고 느끼고 누릴 수 있는 요소도 많다. 달팽이체험학교는 누구나 참여할 수 있는 느린 체험 프로그램이다. 백제 부흥군도 되어보고, 숲의 정취에도 젖어보고, 슬로시티 대흥마을의 가치도 확인할 수 있다.그 사이사이로 난 느린 꼬부랑길은 프로그램에 구애받지 않고 편히 즐길 수 있는 마을 산책로다. 3개의 코스로 나뉘는데 5.1km의 옛이야기길은 90분, 4.6km의 느림길은 60분, 3.3km의 사랑길은 50분이 걸린다. 무엇보다 곳곳에 의좋은 형제 이야기가 살아 숨쉰다. 서로의 곳간으로 밤새 볏단을 날랐다는 이성만과 이순 형제 이야기는 전설이 아닌 대흥마을에 전해오는 실화다. 대흥마을만이 전할 수 있는 감동이 서렸다.",충청남도 예산군 대흥면 중리길 49,041-331-3727
17,충청권,예산 봉수산 자연휴양림&수목원,"충청남도 예산군 대흥면 상중리 산11-1번지외3필지 예산군청 예산 대흥 봉수산 자연휴양림은 2007년에 개장해 다양한 산림휴양시설을 갖추고 있으며, 천연림과 인공림이 조화를 이룬 절경에 각종 야생조수가 서식하고 있는 곳으로 알려져 있고, 예당저수지(330만평)와 어울어진 사시사철 경관이 가히 내방객의 눈과 마음을 사로잡는데 부족함이 없다. 또한 휴양림내 등산코스는 1시간부터 3시간 코스까지 다양하고, 등산로는 비교적 완만하여 가족 및 동호회 단위의 등산객이 증가하고 있으며, 휴양림내 산림욕은 상쾌한 솔내음을 온몸으로 만끽할 수 있고, 아름다운 숲사이에 숲속의 집과 광장, 산책로, 숲체험장등 각종 편의ㆍ휴식시설이 잘 갖춰져 자연이 숨쉬는 숲의 공간으로 가족과 단체등의 휴식처가 되고 있다. 아울러, 휴양림 인근에는 전국제일의 낚시터인 예당저수지와 의좋은 형제공원, 대흥동헌, 대련사, 임존성 및 덕산온천, 천년고찰 수덕사, 충의사, 추사고택, 고건축박물관등 교육ㆍ문화탐방과 휴양을 동시에 체험하실 수 있는 유일한 자연휴양림이다.",충청남도 예산군 대흥면 임존성길 153,봉수산휴양림 관리사무소 041-339-8936~8
18,충청권,부여 궁남지,"궁남지는 신라 선화공주와 결혼한 무왕의 서동요 전설이 깃든 곳이다.『삼국사기』에 “백제 무왕 35년(634) 궁의 남쪽에 못을 파 20여리 밖에서 물을 끌어다가 채우고, 주위에 버드나무를 심었으며, 못 가운데는 섬을 만들었는데 방장선산(方丈仙山)을 상징한 것”이라는 기록이 있다. 이로 보아 이 연못은 백제 무왕 때 만든 궁의 정원이었음을 알 수 있다. 연못의 동쪽 언덕에서 백제 때의 기단석과 초석, 기와조각, 그릇조각 등이 출토되어 근처에 이궁(離宮)이 있었을 것으로 짐작된다.못 가운데 섬을 만들어 신선사상을 표현한 궁남지는 우리나라 최고(最古)의 인공정원으로 백제의 노자공은 일본에 건너가 백제의 정원 조경기술을 전해주었다고 한다. 백제가 삼국 중에서도 정원을 꾸미는 기술이 뛰어났음을 알 수 있다.사계절이 아름다운 관광지이다. 7월에는 천만송이 연꽃들의 아름다운 향연인 서동연꽃축제가 열리고, 10~11월에는 다양한 작품으로 꾸며진 굿뜨래 국화전시회가 열려 궁남지의 아름다움을 더해준다.",충청남도 부여군 부여읍 궁남로 52,문화재과 041-830-2953
19,충청권,아산 외암마을,"중요민속문화재로 지정된 마을이다. 마을은 500여년 전부터 형성이 되었고, 마을의 터가 좋아 한국의 살기 좋은 마을 10선에 선정되었다. 마을 주민들은 조상대대로 농업에 종사, 전통문화를 지키며 살아가고 있으며 오시는 관람객들에게 다양한 볼거리 체험거리를 제공하고 있다. 마을에서는 매년 정월 장승제를 지내고 10월에는 짚풀문화제, 11월에는 동지행사를 하며 마을 앞에는 조선시대 시장인 저잣거리가 조성되어 있어 먹거리 및 공연을 관람할 수 있다. 아름다운 우리의 전통문화를 가꾸어 가는 외암민속마을에서 전통문화를 즐기다 보면 어느덧 어렵게 느껴지던 전통문화들이 친숙하게 느껴질 것이다.",충청남도 아산시 송악면 외암민속길9번길 13-2,041-541-0848
20,충청권,청주동물원,"1995년 7월 동물원 조성 공사를 시작으로 1997년 6월 원숭이사 및 3동의 편의시설을 준공했고 같은 해 7월에는 ''청주동물원''이라는 이름으로 개원을 하였다. 또 1999년 청주동물원 확장 공사를 시작해서 2000년에는 조류 테마공원을 조성했다. 이후 2006년까지 관리사무소 외 17동을 준공한 뒤 2007년 조직 개편에 의거 청주랜드관리사업소로 통합되었다. 청주동물원은 시설 조성 면적 9860㎡에 35동 규모로 건물 연면적은 2735㎡, 주차장 11160㎡의 시설이다. 동물원 내에 있는 동물은 포유류 36종 116마리, 조류 72종 393마리, 파충류 7종 21마리, 어류 1종 10마리 등 총 116종 540마리로 다양한 동물들을 한자리에서 모두 볼 수 있다.",충청북도 청주시 상당구 명암로 171,청주동물원 043-201-4863
21,충청권,청주 명암유적지,"청주에서 가장 큰 저수지로 타원형으로 되어 있으며, 보트놀이를 즐길 수 있고 주변일대엔 울창한 산림과 사계절마다 특색있는 우암산 우회도로, 등산로, 청주 박물관, 우암어린이회관, 상당산성과 연결되어 시민의 휴식처로서 큰 역할을 담당하고 있다. 근처에 있는 명암약수터는 1920년대에 발견된 탄산천으로 주변의 수려한 자연 경관과 함께 탄산성분과 철분이 함유된 약수를 찾는 시민이 사철 찾던 곳이지만, 지금은 철분이 기준치 이상을 함유하여 약수로 사용을 않고 있는 실정이다. 호텔과 낚시터, 겨울에는 눈썰매를 즐길 수 있는 각종 시설이 있다.주변경관이 빼어나고, 주위에 좋은 음식을 접할 수 있는 식당가가 많아 데이트코스로도 각광받고 있으며 최근 명암타워가 준공되어 결혼식 및 각종회의 장소로 주민들이 즐겨찾고 있다.",충청북도 청주시 상당구 성내로124번길 14,043-201-4422
22,충청권,충주 세계무술공원,"충주 세계무술공원에는 아름다운 풍경을 자랑하는 남한강변의 제방을 따라 산책로와 자전거도로가 개설되어 있으며, 공원의 정문 옆에는 푸른 인조잔디가 깔린 축구장이 있어 운동과 여가생활을 하기에 좋은 곳이다. 공원 안에는 세계무술박물관, 어린이놀이시설 라바랜드, 야외공연장, 수석공원, 돌 미로원 등의 시설을 갖추고 있을 뿐만 아니라, 인접한 능암늪지 역시 학습과 체험, 관광과 휴식을 동시에 즐길 수 있는 생태관람공원으로 조성되어 시민들이 사랑하는 휴식처로 자리잡았다.",충청북도 충주시 남한강로 24,043-850-6753
23,충청권,충주 중앙탑사적공원,"국보인 충주 탑평리 7층 석탑은 남한강의 아름다운 경관과 잘 어우러져 있는 통일신라 시대의 석탑으로, 당시에 세워진 석탑 중 가장 규모가 크며, 우리나라 중앙부에 위치한다고 해서 중앙탑이라고도 부른다. 중앙탑 주변에는 조각공원이 만들어져 있으며, 넓은 잔디밭이 깔려있는데, “문화재와 호반예술의 만남”이라는 주제로 국내 조각가들의 작품 26점을 전시한 충북 최초의 야외 조각 공원이다. 사적공원은 시민들의 공원으로 자리 잡기 위해 파고라와 조형물, 어린이들을 위한 간이 분수 및 산책로를 조성하였다. 그리고 중앙탑공원 내에는 충주박물관 1관, 충주박물관 2관, 야외박물관, 야외음악당, 음악분수 1기, 중앙탑, 경기 운영소, 간이 분수, 파고라, 10여 개의 조형물 등이 있다.이러한 시설을 바탕으로 중앙탑 사적공원은 충주 시민들의 쉼터와 어린이 학습 체험 장소가 자리잡았으며, 중앙탑공원 북쪽에 있는 충주조정지댐과 더불어 충주 시민의 위락 시설로 이용되고 있다. ",충청북도 충주시 중앙탑면 중앙탑길 112-28,043-842-0532
24,충청권,충주 충주호체험관광지,"충주댐 건설로 생긴 충주호는 ‘내륙의 바다’라 불릴 정도로 규모가 크다. 댐 건설로 충주, 단양, 제천 등 3개 지자체에 걸쳐 66.48㎢가 수몰됐고, 약 5만명의 수몰 이주민이 생겨 고향을 잃은 이들에겐 가슴 아픈 기억의 장소지만, 지금은 많은 관광객이 찾는 명소가 됐다. 충주, 단양, 제천 3개 지자체에 걸쳐 있는 호수이기에 주변으로 월악산국립공원, 송계계곡, 청풍 문화재단지, 단양 8경, 고수동굴, 구인사, 수안보온천, 노동동굴 등 수많은 관광자원들을 보유하고 있다. 충주호에는 충주댐 본 댐의 충주나루, 월악산 비경 아래의 월악나루, 청풍문화재단지 인근의 청풍나루, 단양팔경의 구담봉, 옥순봉이 있는 장회나루, 단양읍의 단양나루 등 총 5개의 유람선 선착장이 설치되어 있어 충주호 관광선을 이용하여 호반의 정취를 즐길 수 있도록 하였다. 충주댐 나루에서 장회나루까지의 뱃길은 대략 1시간 30여 분이 소요되는 장거리 코스이며, 수려한 선상 관광의 정수를 느낄 수 있는 매력적인 관광 코스이다. 충주호와 월악산 영봉이 한 눈에 들어오는 월악나루 주변의 풍경뿐만 아니라, 청풍나루~장회나루 구간에 있는 기암절벽의 암봉들과 어우러진 단양팔경(구담봉, 옥순봉) 선상 관광은 충주호 뱃길 여행 중 가장 빼어난 곳이라 할 수 있다.", ,043-850-5114
25,충청권,제천 청풍호유람선,"선착장에는 엘리베이터가 설치되어 있어서, 거동이 불편하신 어르신이나 유아가 이용하기에 타 업체대비 편리하다. 전국 담수량 1위인 청풍호의 청명한 바람과 함께 단양팔경 중 2경인 옥순봉/구담봉의 절경을 즐기며 즐거운 추억을 남기길 바란다.",충청북도 제천시 청풍면 청풍호로50길 6,청풍호유람선 043-644-8859
26,충청권,제천 청풍호반케이블카,"수도권역에서 1시간 30분, 전국 3시간대 거리에 위치한 내륙의 바다, 천혜의 환경과 치유와 회복을 지향하는 청풍명월 본향인 이곳 충북 제천 청풍에서 봉황의 날개를 타고 날아올라 청풍명월의 비경을 누비는 아름다운 여정을 시작한다. 청풍호반 케이블카는 청풍면 물태리에서 비봉산 정상까지 2.3km 구간을 왕복 운행하는 케이블카 시설로 오스트리아에 본사를 둔 도펠마이어社의 최신 기종인 D-Line 모델이다. 10인승 캐빈 43대가 운행되며 그 중 10개의 캐빈은 바닥이 투명한 크리스탈 캐빈으로 구성되어 발아래의 아찔함을 느낄 수 있다.평균 5m/s의 운행 속도로 2.3km의 거리를 약 10분 만에 비봉산 꼭대기에 도달하며, 케이블카 수송능력은 시간당 최대 1,500명, 일일 최대 15,000명까지 수송이 가능하다. 케이블카 상부 정차장인 비봉산은 봉황새가 알을 품고 있다가 먹이를 구하려고 비상하는 모습과 닮았다고 하여 붙여진 이름으로 청풍호 중앙에 위치한 해발 531m의 명산으로 정상에서 바라보는 풍경은 흡사 다도해를 보는 듯한 빼어난 풍광을 가지고 있으며, 국내 최초로 정상까지 케이블카가 운행되어 어린이나 노약자분들도 편안하게 케이블카를 타고 청풍호의 비경을 즐길 수 있다.",충청북도 제천시 청풍면 문화재길 166 (청풍면),043-643-7301
27,충청권,단양 온달관광지,"온달관광지는 온달전시관, 온달오픈세트장, 온달동굴, 온달산성으로 구성된다. 온달전시관은 고구려 고분의 형상을 모티브로 설계했으며 전시장 내부는 온달 장군의 투구를 본떠 만들었다. 온달이 평강 공주의 도움을 받아 장군으로 성장하는 과정을 역사적 사료를 통해 관람할 수 있다. 온달오픈세트장은 온달관광지에서도 가장 인기 있는 코스로 고구려 시대의 궁궐, 주택, 저잣거리 등을 다채롭게 재현해 드라마와 영화 촬영 세트장으로 활용되고 있다. 약 4억 5천만 년의 세월을 품은 온달동굴은 신비로운 모양의 종유석, 석순이 많이 발달해 있으며, 30분 정도 거닐며 웅장한 풍경을 감상할 수 있다.",충청북도 단양군 영춘면 온달로 23,043-423-8820
28,충청권,단양 다리안관광지,"소백산국립공원 진입 관문에 위치한 다리안국민관광지는 소백산 깊은 계곡에서 흘러나오는 깨끗한 물줄기가 다리안 관광지를 휘돌아 흐르며 깊은 골짜기에서 배어 나오는 상큼한 공기는 찾는 이의 마음을 상쾌하게 해주는 곳이다. 용이 승천하였다는 전설을 간직한 다리안계곡을 주위로 3대동굴과, 소백산등이 있어 등산과 피서, 휴양을 겸한 관광지로서 좋은 곳이다.",충청북도 단양군 단양읍 소백산등산길 12,다리안 관광지 관리사무소 043-423-1243
29,전라권,익산 교도소세트장,"성당면 와초리 성당초등학교 남성분교 폐교부지 위에 세워 진 국내 유일의 영화 촬영용 교도소세트장의 입구에는 그동 안 촬영된 영화 포스터들을 전시하고 있다. 딱딱하고 경직된 회색의 높은 담장이 주위를 둘러싼 교도소 이미지를 탈바꿈 한 이곳은 과거 아이들이 다니던 초등학교였으나, 폐교를 세 트장으로 활용하고 있으며, 또한 운동장에 깔린 천연잔디는 관광객들의 휴식공간으로 각광받고 있다.",전라북도 익산시 성당면 함낭로 207,063-859-3836
30,전라권,익산 고스락,"고스락은 ‘으뜸’, ‘최고’를 뜻하는 순수 우리말 옛글로 3만여평 장독정원에서 4,000여개의 전통 옹기를 이용하여 100% 우리땅에서 자란 유기농 인증을 받은 원료만을 사용하여 자연발효 숙성시킨 최고급 유기농 전통 식품을 제조하고 있으며 영농조합법인 다송리사람들은 2011년 돌나라인증코리아로부터 유기가공식품인증(2-8-161)을 획득, 엄격한 품질관리시스템에 의하여 대한민국 최고의 명품 유기 장류를 생산하고 있고, 발효식품 메카로 거듭나기 위하여 연구, 노력하고 있는 곳이다.약식동원(藥食同原) 즉, “ 먹는 것이 약이 된다”는 뜻으로 음식과 약은 그 원천이 같으므로 음식으로 병을 치료할 수 있다고 하는데고스락은 앞으로 100세 시대를 살아가는 현 시대에 오래 건강하게 사는 삶을 생각하며 선조들의 지혜와 정성이 담긴 건강한 전통 장류의 맛과 향기를 이어가고 있다.",전라북도 익산시 함열읍 익산대로 1424-14,063-861-2288
31,전라권,군산 시간여행마을,"군산은 근대사에서 수탈의 아픔과 이에 항거한 열정의 도시로, 일제강점기 근대 문화를 상상해볼 수 있는 문화재가 원도심을 중심으로 잘 보존되었다. 군산 원도심은 조선 후기와 일제강점기로 시간 여행을 하는 느낌이 들어 ''군산시간여행마을''이라 부른다. 군산근대역사박물관, 호남관세전시관, 군산근대미술관, 장미갤러리, 군산근대건축관, 진포해양테마공원, 뜬다리(부잔교), 해망굴, 초원사진관, 군산 신흥동 일본식 가옥(히로쓰 가옥), 고우당, 군산항쟁관, 동국사, 군산3·1운동기념관, 채만식문학관, 이영춘가옥, 군산 구 임피역 등 지난 세기의 독특한 분위기를 느낄 수 있다.",전라북도 군산시 내항1길 8 (장미동),063-446-5114
32,전라권,군산 경암동 철길마을,"페이퍼 코리아 공장과 군산역을 연결하는 2.5km의 철로 주 변의 마을을 총괄하여 붙여진 이름이다. 경암동 철길은 1944년 일제강점기 시절 신문 용지 재료를 실어나르기 위해 최초로 개설되었으며, 개설된 철도 주변에 사람들이 모여 살기 시 작하며 동네를 이루었다. 1970년대 들어 본격적으로 마을이 형성되었으며, 마을이 위치한 행정 구역 명칭에 따라 철로 주 변에 형성된 마을을 경암동 철길 마을이라 부르기 시작했다",전라북도 군산시 경촌4길 14,061-454-4000
33,전라권,무주 반디랜드,"반디랜드는 반딧불이를 체험하고 학습, 관람할 수 있는 곳으로, 희귀 곤충을 만날 수 있는 곤충박물관, 반딧불이연구소, 청소년야영장, 통나무집, 반딧불이 서식지가 있는 체험 학습 교육 공간이다. 반디랜드내에 위치한 무주 반디별 천문과학관에서는 우주의 탄생과 역사, 태양계, 별자리, 우주환경에 대해 배울 수 있으며, 무주군의 청정환경의 지표곤충인 반딧불이와 각종 곤충류에 대한 생태연구 및 서식처 복원 등을 통하여 환경교육의 거점지역으로 육성하기 위해 조성한 반딧불이 환경테마공원은 볼거리를 더하고 있다.",전라북도 무주군 설천면 무설로 1324,063-324-1155
34,전라권,완주 삼례문화예술촌,"삼례문화예술촌은 1920년대 산미증식계획과 함께 호남지방 수탈이 가속되던 때, 삼례역을 통해 일본으로 양곡을 반출할 목적으로 만들어진 창고에 기반하고 있다. 해방 이후 2010년까지 농협 창고로 사용되었던 건물을 완주군이 매입하여 지역 재생을 통한 문화공간으로 조성하였고, 2013년 6월 개관 이후 삼례문화예술촌은 지역 문화 활성화를 위한 중추적 역할을 담당하고 있다.2021년은 개관 9년차를 맞아 시설(경관) 개선 사업과 함께 신규 콘텐츠 준비로 제1전시관, 다목적공간, 공연장, 소매점 등 일부 시설을 운영 중에 있다.제1전시관은 1920년대 일제강점기 양곡 창고를 리모델링한 공간으로서 높은 층고와 함께 양곡 적재를 위한 목조 구조가 드러나 있어 역사적 의미가 담겨있는 곳이며, 다목적공간과 야외광장은 주민들이 문화의 주체가 되어 활동할 수 있도록 세미나, 전시, 체험 등으로 활용하고 있다.",전라북도 완주군 삼례읍 삼례역로 81-13,070-8915-8121
35,전라권,진안 마이산도립공원 남부,"진안읍내 어느 방면에서나 눈에 띄는 마이산은 이름이 철에 따라서 네 가지이다. 봄에는 안개를 뚫고 나온 두 봉우리가 쌍돛배 같다하여 돛대봉, 여름에 수목이 울창해지면 용의 뿔처럼 보인다고 용각봉, 가을에는 단풍 든 모습이 말의 귀 같다 해서 마이봉, 겨울에는 눈이 쌓이지 않아 먹물을 찍은 붓끝처럼 보여 문필봉이다. 마이산 오르는 길은 두 가지가 있다. 하나는 유명한 마이산 탑사가 있는 남쪽에서 오르는 코스이고 다른 하나는 북쪽에서 내려가는 코스이다. 마이산에는 조선시대 태조가 임실군의 성수산에서 돌아가다가 백일기도를 드렸다는 은수사, 강한 비바람에도 쓰러지지 않는다는 80여개의 돌탑을 거느린 탑사 등이 있다.마이산은 소백산맥과 노령산맥의 경계에 넓게 펼쳐져 있는 말의 귀모양으로 생긴 두 봉우리를 말하는 것으로 섬진강과 금강의 분수령을 이루고 있다. 동쪽에 솟아있는 숫마이봉은 667m이며, 서쪽에 솟아있는 암마이봉은 673m이다. 마이산은 전체가 바위로 되어 있으나 관목과 침엽수, 활엽수 등이 군데군데 자라고 있으며, 화암굴, 탑군, 금당사 등이 있다. 특히, 두 봉우리 사이의 남쪽 계곡에는 돌로 쌓은 수십 기의 마이산 탑사가 있기도 하다. 마이산에는 놀이와 휴식에 적합한 관광 등산코스로도 유명하다. 또한 입구 3km 진입로에는 벚꽃나무가 터널을 이루고 있어 매년 벚꽃이 만개하는 4월 중순경에 남부주차장 입구에서 진안군 주관으로 벚꽃축제가 열리고 있다. 주요행사 내용은 군민노래자랑, 좌도농악공연, 벚꽃 축제한마당, 향토특산물 전시판매장 등이 개설되며, 군민 화합의 축제 한마당이 되고 있다.",전라북도 진안군 진안읍 마이산로 130,063-430-8751~3
36,전라권,진안 마이산도립공원 북부,"진안읍내 어느 방면에서나 눈에 띄는 마이산은 이름이 철에 따라서 네 가지이다. 봄에는 안개를 뚫고 나온 두 봉우리가 쌍돛배 같다하여 돛대봉, 여름에 수목이 울창해지면 용의 뿔처럼 보인다고 용각봉, 가을에는 단풍 든 모습이 말의 귀 같다 해서 마이봉, 겨울에는 눈이 쌓이지 않아 먹물을 찍은 붓끝처럼 보여 문필봉이다. 마이산 오르는 길은 두 가지가 있다. 하나는 유명한 마이산 탑사가 있는 남쪽에서 오르는 코스이고 다른 하나는 북쪽에서 내려가는 코스이다. 마이산에는 조선시대 태조가 임실군의 성수산에서 돌아가다가 백일기도를 드렸다는 은수사, 강한 비바람에도 쓰러지지 않는다는 80여개의 돌탑을 거느린 탑사 등이 있다.마이산은 소백산맥과 노령산맥의 경계에 넓게 펼쳐져 있는 말의 귀모양으로 생긴 두 봉우리를 말하는 것으로 섬진강과 금강의 분수령을 이루고 있다. 동쪽에 솟아있는 숫마이봉은 667m이며, 서쪽에 솟아있는 암마이봉은 673m이다. 마이산은 전체가 바위로 되어 있으나 관목과 침엽수, 활엽수 등이 군데군데 자라고 있으며, 화암굴, 탑군, 금당사 등이 있다. 특히, 두 봉우리 사이의 남쪽 계곡에는 돌로 쌓은 수십 기의 마이산 탑사가 있기도 하다. 마이산에는 놀이와 휴식에 적합한 관광 등산코스로도 유명하다. 또한 입구 3km 진입로에는 벚꽃나무가 터널을 이루고 있어 매년 벚꽃이 만개하는 4월 중순경에 남부주차장 입구에서 진안군 주관으로 벚꽃축제가 열리고 있다. 주요행사 내용은 군민노래자랑, 좌도농악공연, 벚꽃 축제한마당, 향토특산물 전시판매장 등이 개설되며, 군민 화합의 축제 한마당이 되고 있다.",전라북도 진안군 진안읍 마이산로 130,063-430-8751~3
37,전라권,전주향교,"고려 말에 현유(賢儒)의 위패를 봉안, 배향(配享)하고 지방민의 교육과 교화를 위하여 창건되었다. 당시의 위치는 현재 경기전(慶基殿) 근처였으나 태조(太祖) 이성계의 수용(?容)을 봉안하기 위하여 경기전이 준공되자 1410년(태종 10) 전주성의 서쪽 황화대(黃華臺) 아래로 이전하였다. 그 뒤 1603년(선조 36) 순찰사 장만(張晩)이 좌사우묘지제(左社右廟之制)에 어긋난다 하여 조정에 보고, 왕의 재가를 받아 현재의 위치로 이전하였다. 1654년(효종 5)·1832년(순조 32)·1879년(고종 16)·1904년에 중수하였고, 1922년에 명륜당을 보수하였다. 조선 후기의 경내 건물로는 3칸의 대성전, 각 10칸의 동무(東?)와 서무(西?), 신문(神門), 외문(外門), 만화루(萬化樓), 5칸의 명륜당, 각 6칸의 동재(東齋)와 서재(西齋), 3칸의 계성사(啓聖祠), 신문(神門), 입덕문(入德門), 4칸의 사마재(司馬齋), 6칸의 양사재(養士齋), 2칸의 책판고(冊板庫), 직원실, 제기고(祭器庫), 수복실 등 총 99칸인 대규모의 건물로 되어 있었다. 따라서 이 향교는 전라도 53관의 수도향교(首都鄕校)라 칭하였다. 그 뒤 만화루는 1886년(고종 23)에 홍수로 수몰되었고, 책판고는 관찰사 조한국(趙翰國)이 관고(官庫) 소유 책판을 전주향교로 이장하여 책판고 내에 관리하도록 하였는데, 1920년의 홍수와 1950년 6·25전쟁으로 거의 없어지고 말았다. 이 향교의 대성전은 전라북도 유형문화재로 지정되어 있으며, 5성(五聖)·10철(十哲)·송조 6현(宋朝六賢)의 위패를 봉안하고 있다. 또 동무·서무에는 유약(有若)·복불제(宓不齊)·복승(伏勝)·동중서(董仲舒)·한유(韓愈)·이통(李?)과 우리나라 18현(十八賢)의 위패를 봉안하고 있다.",전라북도 전주시 완산구 향교길 139 (교동),063-288-4548
38,전라권,전주 오목대,"한벽당과 전주향교의 북쪽 4차선 노변, 벼랑같이 솟은 언덕에 세워진 오목대는 고려 말 우왕 6년(1380년)에 이성계가 운봉 황산에서 왜군을 무찌르고 돌아가던 중 조상인 목조가 살았던 이 곳에 들러 승전을 자축한 곳으로, 그 후 고종 황제가 친필로 쓴 태조고황 제주필유지비를 세웠다. 여기서 육교를 건너서 이목대가 있는데, 천주교의 성지 치명자산이 있는 승암산 발치에 위치한다. 오목대에서 육교를 건너면 70m 윗쪽으로 이목대가 있는데 건물이 있는 80m 아래쪽에 비석과 비각을 세웠다. 이 비 속에는 목조대왕 구거유지라 새겨져 있는데 고종 황제의 친필이다. 목조는 조선조를 건국한 이태조의 5대조로, 목조가 어릴 때 이 곳에서 진법놀이를 하면서 살았던 유적지로 알려져 있으며, 그러한 내용이 용비어천가에도 나타나 있다. 목조가 당시의 전주부사와의 불화로 이곳에서 함경도로 옮겨간 것이 이성계로 하여금 조선조를 건국할 수 있었던 계기가 되었으므로, 이를 하늘의 뜻이라고 여겼다 한다.",전라북도 전주시 완산구 기린대로 55,오목대 관광안내소 063-282-1335
39,전라권,전주 한옥마을,"전주한옥마을은 전주시 풍남동과 교동에 위치해 있다. 이곳에는 한국의 전통 건물인 한옥(韓屋)이 735여 채나 밀집되어 있다. 빠르게 변화는 도시 속에 옛 것을 그대로 간직한 전주한옥마을은 한국의 옛 전통을 맛볼 수 있는 곳으로 유명하다. 전주한옥마을의 멋은 무엇보다도 한옥의 아름다운 지붕선에 있다. 지붕자락이 살짝 하늘로 향해 있는 것이 한옥의 특징이고 멋이다. 한옥의 구조는 크게 안채와 사랑채로 나누어져 있다. 안채는 여인들이 머무는 곳으로 규수방이 있고, 사랑채는 남자들이 사용하던 곳으로 선비방으로 되어 있다. 한옥은 남녀의 활동이 구분되어 있어 각각의 특징들을 가지고 있다. 그 중 안채의 경우는 여인들이 생활하는 곳이기 때문에 가장 은밀하고 깊숙한 곳에 위치해 있다. 한옥의 또 하나의 특징은 온돌방이다. 한국은 주로 앉아서 생활하기 때문에 바닥에 온돌을 깐다. 온돌의 구조는 방 밖에 아궁이(함실)을 만들고 구들(아궁이 안쪽)밑으로 불을 때면 온돌이 따뜻하게 데워지는 것이다. 여름에는 시원하고 겨울에는 따뜻하다는 것이 온돌의 가장 큰 특징이다. 이곳에 가면 한옥생활체험관이 따로 마련되어 있다. 한옥생활체험관안에 있는 선비방과 규수방에서 직접 온돌방 체험을 할 수도 있다. 한옥생활체험 중 이곳에서 제공되는 전통한식은 납청유기(納淸鍮器)에 담아 맛과 멋을 더한다. 전주한옥마을에서 직접생활도 해보고 맛있기로 유명한 전주비빔밥도 맛보는 두가지 체험을 할 수 있는 곳이다.",전라북도 전주시 완산구 기린대로 99 (남노송동),관광안내소 063-282-1330
40,전라권,전주 경기전,"경기전은 조선왕조를 연 태조의 초상화, 즉 어진을 봉안하고, 제사를 지내기 위해 태종 10년(1410년) 지어진 건물이다. 전주, 경주, 평양 등의 어진 봉양처를 처음에는 어용전이라고 불리었는데, 태종 12년(1412년)에 태조 진전(眞展)이라 하였다가 세종24년(1442년)에 전주는 경기전, 경주는 집경전, 평양은 영숭전이라 각각 칭하였다.경기전은 선조30년(1597년) 정유재란 때 소실되었으나 광해군6년(1614년) 중건되었다. 경기전은 누구든 말에서 내려야 한다는 신성함을 표시한 하마비, 붉은 색칠을 한 홍살문, 외신문, 내신문 그리고 어진을 모신 정전으로 구성되어 있다. 왕실 사당임을 감안할 때 신문(神門)이라고 호칭되며 홍살물 안쪽 내·외신문의 세 문을 통과할 땐 ''''동입서출'''', 다시 말해 동쪽(오른쪽)으로 들어가 서쪽(왼쪽)으로 나와야 한다. 가운데는 태조의 혼령이 드나드는 ''''신도''''이기 때문이다.경기전은 조선 태조 이성계의 어진 봉안과 함께 전주사고(史庫)가 설치되었다는 점에서 매우 중요한 의미를 안고 있다. 경기전에 사고가 설치된 것은 1439년(세종21년)의 일이다. 경내에는 태조의 영정을 봉안한 경기전(유형문화재)과 그의 22대조이며 전주 이씨의 시조인 신라 사공공(司空公) 이한(李翰) 부부의 위패를 봉안한 조경묘 (肇慶廟·유형문화재)가 있다. 특히 태조 어진(국보)과 함께 현존하는 조선왕조 어진들이 모셔진 어진박물관도 자리하고 있다.경기전이 오랫동안 관광객과 시민들로부터 사랑을 받아온 이유 가운데 하나는 도심속에 담긴 고풍스러운 모습과 우거진 수목 덕분이다. 경기전에는 다양한 수종의 나무가 있다.",전라북도 전주시 완산구 태조로 44 (풍남동3가),063-281-2788
41,전라권,전주 남부시장,"남부시장의 역사는 조선 초기로 거슬러 올라간다. 당시 ‘남문밖시장’이 남부시장의 모태(母胎, base) 로 알려진다. 1905년에 정기 공설시장으로 개설됐고, 이후 ‘남부시장’이라는 명칭이 사용되기 시작했다. 21세기로 접어든 남부시장은 약 800여 개 점포에 주단, 가구, 건어물, 채소, 과일, 약재 등이 주요 취급 품목이다. 현재는 청년들의 전통시장 살리기가 남부시장의 새로운 활력을 불어넣고 있다. 빈 점포가 즐비했던 시장 6동 2층에는 서울의 삼청동과 홍대 골목 분위기와 흡사한 청년몰이, 남부시장 내 한옥마을에선 다양한 먹거리와 예술품이 가득한 야시장이 열리면서 남부시장만의 독특한 장터 풍경이 펼쳐진다.매주 금·토요일 얄리는 야시장은 독특하고 개성있는 주전부리가 많은 것으로 유명한데 전통강호 피순대 정식과 고소한 녹두전, 비빔밥 롤(라이스페이퍼에 비빔밥을 넣어 만든 핑거푸드)이 남녀노수 모두에게 인기다.",전라북도 전주시 완산구 풍남문1길 19-3,0507-1419-1344
42,전라권,전주 동물원,"덕진공원 정문을 나와 연못을 끼고 동쪽으로 1㎞정도 가면 축구장, 배구장 등 각종 운동 시설을 갖춘 체련공원과 한국소리문화의 전당이 있고, 여기서 동쪽으로 놀이시설(전주드림랜드)이 포함된 전주동물원이 나온다. 1978년 6월 10일 개원한 전주동물원은 지방동물원으로는 유일하게 호랑이, 사자, 기린, 하마, 들소, 큰뿔소, 낙타, 침팬지, 캥거루 등 동물을 다수 보유하고 있으며, 현재 희귀동물인 반달가슴곰, 얼룩말, 재규어 등 총 106종에 670여 마리의 동물을 전시하고 있다.",전라북도 전주시 덕진구 소리로 68,063-281-6759
43,전라권,전주 덕진공원,"전주는 마한시대 이래 호남지방에서 규모가 큰 고을로 그 이름은 마한의 원산성에서 유래했다. 40여년 간 후백제의 수도였으며, 조선시대에는 이성계의 선조가 살았던 고향이라는 이유로 완산유수부로 개칭되기도 했다. 전주에서 볼거리로 강한 인상을 받게 되는 것 중의 하나가 덕진공원에 피는 연꽃이다. 그 만큼 덕진공원 연못은 전주의 명물이다. 전주 IC에서 시내로 들어가는 팔달로변에 위치한 덕진공원은 고려시대에 형성된 자연호수가 1978년 4월 시민공원 결정고시에 의거, 도시공원으로 조성되었고 취향정과 더불어 유서깊은 곳이다.4만 5천평의 경내에는 남쪽으로 3분의 2를 차지하고 있는 연못과 북쪽의 보트장을 동서로 가로지른 현수교가 그 사이를 양분하고 있다. 그윽히 풍기는 연못중앙으로 아치형 현수교를 거닐면서 한없는 시정에 젖어볼 수 있다. 특히, 대대적으로 정비공사를 하여 1998년부터 재개장한 공원의 특색은 마운딩 시공으로 향촌의 작은 숲(언덕)을 연상케 하고, 전통 정자와 창포늪을 조성하여 역사성을 극대화하였고 또한 인공폭포와 목교를 설치하여 자연친화시설로 시민의 정서에 맞도록 조성하였으며 단오절에는 연못물로 부녀자들이 아침 일찍 머리를 감고 한해 건강을 기원하는 단오 창포물 잔치로도 유명하다. 또한 이 덕진공원 안에는 ""어린이 헌장"", ""신석정 시비"", ""김해강 시비"", ""전봉준 장군상"" 등 9개의 석조 기념물이 조성되어 연꽃 향기와 더불어 이곳을 찾는 이들에게 전주의 정취를 안겨주는 문화공간이 되고 있다.",전라북도 전주시 덕진구 권삼득로 390,063-239-2607
44,전라권,부안 변산해수욕장,서해안의 대표적인 해수욕장이다. 하얀 모래와 푸른 솔숲이 어우러졌다 하여 ''백사청송''해수욕장으로도 불린다. 또한 우리나라에서 가장 오래된 해수욕장의 하나로 1933년에 개장되었다. 곱디 고운 모래해변이 끝없이 펼쳐져 있으며 서해안의 해수욕장치고는 물빛도 맑은 편이다. 더욱이 평균수심이 1m밖에 되지 않고 수온이 따뜻해서 해수욕장 조건이 아주 좋다.,전라북도 부안군 변산면 변산로 2076,063-583-6951
45,전라권,부안 모항해수욕장,"바다를 낀 변산반도 국립공원 해안도로에서 변산과 격포를 거쳐 곰소로 가다보면 모항해수욕장을 만날 수 있다. 모항해수욕장은 아담한 백사장과 울창한 소나무밭이 아름다운 조화를 이룬다. 규모는 작지만 서해의 다른 해변과 달리 물이 빠져 해변이 드러나도 하얀 모래가 가득하고, 해수욕장 곳곳에서 바다낚시와 선상낚시를 즐길 수 있다.변산반도 일대에서 가장 한적한 해수욕장으로, 2000년 12월에 관광지로 조성되었고, 가족호텔, 가족휴양촌 등 각종 숙박시설과 해변카페 등이 조성되었다. 주변에는 모항갯벌체험장, 호랑가시나무군락지(천연기념물)가 있으며 격포항에서 모항으로 가는 환상적인 드라이브 코스가 있다. 빼어난 풍경의 갑남산을 끼고 있는 모항해수욕장은 갯바위 낚시와 갯벌 체험장으로 가족여행객들의 발길을 사로잡고 있으며 해안가에 즐비하게 늘어선 해송은 모항해수욕장의 랜드마크가 됐다. 또한 전국 사진작가들의 일몰 포인트로 많은 사랑을 받고 있다.",전라북도 부안군 변산면 모항길 22,063-580-4413
46,전라권,임실 치즈테마파크,"임실치즈테마파크는 임실치즈를 테마로 한 국내 유일 체험형 관광지로 1960년 지정환 신부가 산양 2마리를 키운 것으로 시작, 한국 치즈 산업의 중심지로 자리매김하고 있다. 임실군 성수면 도인리 13만 제곱미터, 축구장 19개 넓이의 드넓은 초원 위에 조성되었으며, 임실치즈의 맛과 멋이 깃든 체험교육을 진행하고 있다. 식당에서는 이곳에서 생산한 치즈 요리를 맛볼 수 있으며 드넓은 초지, 유럽풍의 아름다운 경관은 스위스 아펜젤러를 온듯한 착각을 불러 일으킨다.",전라북도 임실군 성수면 도인2길 50,063-643-9540
47,전라권,임실 옥정호외얏날,"옥정호는  섬진강 다목적댐을 만들면서 생긴 거대한 인공호수로 유역면적이 763㎢이며 저수면적이 26.3㎢로 총저수량은 4억3천톤에 달하여 호남평야를 적셔 곡창지대로 만드는 다목적 댐이다. 옥정호는 노령산맥 줄기로 호남정맥이 지나가는 오봉산, 국사봉, 회문산과 연계되어 있고 오봉산과 국사봉 산이 호수를 양팔을 벌려 감싸 안은 듯한  풍경과 사계절 다르게 보여진 옥정호 붕어섬은 사진작가가 많이 찾는 최고의 명소이다. 아침햇살을 받아 호수 면으로부터 아지랑이처럼 피어오르는 물안개는 마치 신선이나 노닐 법한 풍경으로 국사봉에서 보는 옥정호 붕어섬은 최고의 백미로 마치 백두산 천지에 와있는 듯한 착각을 일으키게 한다. 이러한 옥정호의 풍광을 가까이 느낄 수 있도록 호수주변에 물안개길 13㎞을 조성(2012년 준공) 많은 탐방객이 옥정호를 찾고 있다.",전라북도 임실군 운암면 입석리 458,063-640-4082
48,전라권,장수 와룡 자연휴양림,"와룡자연휴양림은 1996년 6월에 개장한 삼림 휴양공원으로서 삼림욕과 자연관찰, 학습탐방, 그리고 가족단위 휴양이나 단체 수련 등을 위해 제몫을 톡톡히 하는 장수군의 명소로 자리잡고 있다. 일일 수용인원은 약 1,200명 정도이며 연중무휴로 개방한다. 시설물로는 야영객을 위한 야영장과 야영데크 및 평상, 그리고 일반/단체 방문객들을 위한 연수의 집, 복합 산막, 숲속의 집 등 각종 시설과 숙사를 갖추어 놓았다. 아이들을 위한 사계절 눈썰매/물썰매장, 야외수영장과 천연 물놀이장 등의 시설도 구비해 놓고 있다. 휴양림으로서 자연학습장과 체련단련장 등의 시설도 잘 갖추어져 있으며, 단체객들을 위한 야외무대도 마련되어 있는 종합적인 숲속 휴양공간이자 문화공간이라 할 수 있다.",전라북도 장수군 천천면 비룡로 632,063-350-2477
49,전라권,장수누리파크,"장수읍에 위치한 장수누리파크는 농업·농촌자원의 가치와 중요성을 농촌주민과 도시민이 공감할 수 있는 장을 마련하고 주변 관광자원과 연계하여 지역경제 활성화를 도모하고자 조성되었으며 장수누리파크를 포함한 의암공원, 논개사당 등은 장수군 연간 관광객의 30%를 차지하는 대표 관광지구이며 지역 대표농특산물인 레드푸드(한우, 사과)와 농업·농촌을 테마로 한 체험, 관광, 휴양의 공간을 제공하며 농촌의 가치와 다양성을 도시민과 지역민이 함께 공유할 수 있는 농촌테마공원. 문화체육관광부 육성 축제「장수 한우랑 사과랑 축제」개최장소이다.",전라북도 장수군 장수읍 논개사당길 65,관리사무소(홍보관) 063-352-5660
50,전라권,장수 방화동 자연휴양림,"방화동자연휴양림·가족휴가촌 기본 정보 전국 8대 종산에 속하는 장안산(1,237m)의 방화동계곡에 조성된 방화동자연휴양림·가족휴가촌은 덕산용소에서 방화동계곡으로 연계되는 코스에 방화폭포, 산림욕장(치유의 숲, 만남의 광장) 시설이 갖추어져 있으며, 깨끗한 계곡을 따라 기암절벽, 다양한 수목 등의 수려한 자연경관으로 가족단위 주말 또는 단기체류형으로 최적의 조건을 갖춘 사계절 매력적인 휴양처다.높은 산이 많은 장수군 특성상 지형적으로 해발 500m 이상의 고지대에 위치하고 있어 기온이 낮으며, 해발 1,000m가 넘는 큰 산들로 둘러 쌓인 방화동자연휴양림은 웰빙 시대에 맞춰 통나무집 4동과 산림문화휴양관등 숙박시설 및 세미나를 위한 영상과 방송시설, 식당 등이 갖춰져 있으며, 방화동가족휴가촌에는 숙박시설(다문화체험동,가족휴양동)을 비롯하여 오토캠핑장, 캠핑카 야영장, 목재문화체험장,취사장을 비롯한 각종 편익시설을 갖추어져 있습니다. 특히 전국 최고의 오토캠핑 시설 등이 수려한 방화동 계곡을 끼고 조성되어 있습니다.",전라북도 장수군 번암면 방화동로 778,063-350-2474
51,전라권,장수 뜬봉샘 생태관광지,"전북 장수군에 위치한 뜬봉샘 생태공원은 금강의 시작 발원지에 위치한 생태공원이며, 약 십만평의 부지에 금강사랑 물체험관, 물의 광장, 생태연못 등 금강의 생물자원과 생태를 체험하고 교육할 수 있는 공간이다. 금강의 발원지인 ''뜬봉샘''에서 솟아오른 물줄기는 강태등을 지나며 금강의 첫 실개천인 강태등골을 만들었다. 원수분천은 강태등골을 시작으로 1.5km를 흘러 수분천으로 이어지며 이웃 하는 실개천과 합류하여 금강으로 이어지고 17개 시군을 거쳐 서해까지 약 395km, 약 천 리의 길을 흐른다.",전라북도 장수군 장수읍 물뿌랭이길 10-18,뜬봉샘생태공원 063-353-7002
52,전라권,고창 선운산 도립공원,일몰이 아름다운 것으로 알려진 선운산의 낙조대와 천마봉 일대는 화산암 중 하나인 유문암으로 구성되어 있다. 이때 유문암은 주변의 응회암보다 단단하고 치밀하여 풍화에 강한 특성을 보이기 때문에 유문암과 응회암 간의 차별적인 풍화작용에 의해 주로 유문암이 수직에 가까운 암석 절벽을 이루고 이뤄 수려한 자연 경관을 관찰할 수 있다. 그렇기 때문에 선운산 일대에서는 수려한 자연경관과 함께 암석의 풍화작용의 특징을 이해하는 중요한 장소가 된다.,전라북도 고창군 아산면 선운사로 158-6,063-563-3450
53,전라권,순창 향가오토캠핑장,섬진강향가오토캠핑장은 고요함과 넉넉함으로 힘들고 지친 현대인들의 마음을 치유한다.힘들게 지내온 시간을 멈추고 주변의 울창한 숲과 넓은 잔디마당이 주는 싱그러운 공기와 향긋한 내음을 맡으며 행복한 여유를 즐긴다.,전라북도 순창군 풍산면 향가로 575,063-652-9001
54,전라권,순창 강천산군립공원,"전북 순창군 팔덕면 청계리 996번지 일대에 위용을 자랑하고 있는 강천산 왕자봉(해발583.7m)과 광덕산 선녀봉(해발578m)을 비롯하여 산성산 연대봉(해발603m)을 중심으로 세개의 산 사이로 병풍을 둘러치듯이 남록과 북록으로 나뉘어 작은 협곡을 이루고 있으며, 사방이 모두 바위산으로 빼어난 아름다움을 간직한 자랑스러운 산이다. 골짜기마다 단단한 암반위로 깨끗하고 맑은 물이 샘처럼 솟아 흐른다하여 강천이라 불렀고 그 주변의 모든 산을 강천산이라 하였다. 예전에는 용천산(龍泉山)이라 불렀다고 한다. 두 마리의 용이 하늘을 향해 꼬리를 치며 승천하는 형상이라 지어진 이름이다.노령산맥에서 추월산을 이어 광덕산과 용천산을 이루고 강천의 진산으로 하늘높이 우뚝 솟은 산성산(두마리의 용이 동쪽하늘에서 서쪽하늘로)에서 두 마리의 용이 나란히 수 십리를 동으로 달린다. 그 속에 수많은 봉우리들 있는데 이름 있는 봉우리만 말하면 연대봉, 운대봉, 수령봉, 천자봉, 깃대봉, 왕자봉, 견제봉, 송락봉 등이다. 그야말로 천봉, 만학, 기암, 괴석이 천태만상이고 거기에 우거진 천연림은 태고를 자랑하듯이 바람만이 물결을 이루고 있다. 이 두 산속 가운데는 수 십리 깊은 계곡이 있다. 이름 있는 계곡만 말하면 연대계곡, 선녀계곡(저부제골), 원등계곡(용대암골), 분통골, 지적골, 소목골, 삼인대계곡(황우제골), 기우제골, 세냥골, 물통골, 초당골, 우작골, 동막골, 금강계곡(탑상골), 승방골, 변두골 등 이다. 골골마다 발원하여 흐르는 맑은 물이 중천으로 합류하여 바위와 바위, 돌과 돌에 부딪히는 물소리는 계곡을 울리며 강천호로 들어간다.시냇가에 봄이 오면 버들강아지 피어오르고 개나리, 진달래꽃 만발할 때쯤이면 산봉우리마다 산벗꽃이 한창이다. 십오리가 넘는 계곡길을 따라 자갈과 자갈사이를 맑고 깨끗한 물에 쉴세 없이 흘러내린다. 너무나 차가워서 인지 맑아서인지 이끼가 끼지 않는다는 강천수로 한여름이 더위를 식혀본다. 유달리 잡목과 단풍나무가 많은 강천산은 일곱가지나 되는 단풍(나무)속에서 애기단풍과 애기다람쥐가 가을의 정취를 더한다. 산세가 가파르거나 위험하지 않는 여러 갈래의 소로길은 가족이나 친구, 연인들이 즐겨 찾는다. 또한 산을 좋아하고 산을 사랑하는 등산객의 산행에도 안성 맞춤이다. 백설이 휘날리며 고드름이 열고 소복이 쌓인 강천의 풍경, 한 폭의 설화를 화폭에 담으려는 화가들의 발길이 끊이지 않는다. 이처럼 강천산의 사계절이 제각기 모습을 달리 하기에 찾는 이의 마음을 설레이고 새롭게 한다.",전라북도 순창군 팔덕면 강천산길 97,063-650-1672
55,전라권,곡성 섬진강 기차마을,"1999년 4월 군 역점시책중 하나인 치포치포 섬진강 나들이 관광열차 행사가 시작된 이래 고달면 가정리가 곡성군 관광명소로 새롭게 부상했다. 옛날에 실제로 운행하던 증기기관차의 모습을 그대로 복원하여 옛 곡성역(섬진강 기차마을)에서 가정역까지 10km 구간을 왕복 운행하는 기차이다. 섬진강 기차마을에는 맑고 깨끗한 섬진강이 흐르고 구 철로(폐선)를 이용한 기차가 달리며, 배를 타고 강을 건너는 나루터가 2개소가 있고, 국도 17호선과 전라선 철도, 섬진강 등 3선이 진풍경을 이루는 호남 최고의 드라이브 코스로서 주변에는 잔디광장과 원두막, 디딜방아, 수차, 코스모스 꽃길 등 환상의 섬진강변 자전거 하이킹 코스가 펼쳐져 있다. 섬진강을 따라 봄의 신록과 도로 변의 꽃들이 만들어 내는 풍경을 느린 속도로 만끽할 수 있다.",전라남도 곡성군 오곡면 기차마을로 232,기차마을 입장권 및 기타 문의 : 061-362-7461 / 8635증기기관차 및 기차마을레일바이크 : 061-363-9900 / 6174섬진강레일바이크 : 061-362-7717
56,전라권,남원관광지,"지리산의 서북쪽 관문인 남원은 옛날부터 정치,군사상 중요한 거점이었다. 남원은 우리 고전문학 작품에서 가장 널리 알려진 춘향전의 무대이기도 하다. 매월당 김시습의 한문 단편소설인 만복사저포기도 남원을 배경으로 삼고 있다. 남원은 전라북도의 교통 중심지로 지리산, 덕유산, 속리산을 연결하는 관광객의 숙박 및 위락 기능을 맡고 있는 도시이다.88 올림픽 고속도로의 개통을 계기로 경주 보문단지와 제주 중문단지에 견줄만한 관광도시의 틀을 갖추고자 추진한 것이 남원관광지이다. 남원시는 광한루원 앞으로 흐르는 요천 건너 어현동의 산허리를 깎아 40여만평의 터에 남원의 전통을 되살리고 광한루와 만인의총, 황산대첩비지, 실상사, 지리산 그리고 구례 화엄사, 덕유산 등을 연계하는 관광도시를 건설함으로써 관광도시 기반의 확충과 서남권 관광의 중심부 역할을 할 것으로 기대하고 있다.현재 국립민속국악원과 춘향문화예술회관, 춘향테마파크, 향토박물관을 비롯하여 위락시설, 남원랜드, 숙박업소,전문 음식점, 전망대 등의 시설과 주변의 극락암, 덕음암 및 빙고치, 천연동굴들로 연결되는 산책로가 조성되어 있고 넓은 광장 앞을 흐르는 요천수에 고무댐을 만들어 조성한 수상유원지와 함께 훌륭한 관광휴식처를 제공하고 있다. 남원관광지와 광한루원을 연결하는 승월교는 마치 은하수를 건너는 오작교를 연상시키고 가히 환상적인 분위기를 연출한다. 최근에는 임권택감독이 만든 영화 ''춘향전''의 촬영세트도 그대로 보존되어 있다.",전라북도 남원시 양림길 43 (어현동),063-620-6160
57,전라권,남원 국악의 성지,"지리산 자락 황산 기슭에 위치한 곳으로, 국악전시 체험관, 독공실, 야외공연장, 국악인 묘역, 사당 등의 시설물로 이루어져 있고, 판소리를 비롯한 우리 음악의 모든 것을 알 수 있는 곳이다.",전라북도 남원시 운봉읍 비전길 69,063-620-5740~2
58,전라권,남원 지리산 허브밸리,"허브밸리는 지리산 운봉 아래 용산리에 조성한 허브관광농원으로 2005년 재정경제부로부터 지리산 웰빙 허브산업특구로 지정받았다. 남원은 깨끗한 자연환경에 총 1,300여 종의 허브가 자생하는 허브의 보고라 할 수 있다. 이곳에서는 허브를 이용한 식품, 대체의학 제품 등의 다양한 허브제품과 친환경 허브원료를 생산하고 있다.남원 허브밸리에는 허브를 테마로 한 볼 거리, 즐길 거리, 체험 거리가 가득한 허브테마파크와 허브꽃따기, 허브차 만들기, 허브향초 만들기 등 허브를 이용한 다양한 체험을 할 수 있는 허브체험관광농원이 마련되어 있다. 또한, 허브제품가공단지, 허브농업지구, 자생식물생태공원 등이 조성되어 있어 다양한 방법으로 허브를 즐길 수 있다.",전라북도 남원시 운봉읍 바래봉길 214,070-7764-0130
59,전라권,남원 백두대간 생태교육장 전시회,"지리산의 상징성과 백두대간의 역사·생태·보존의 최적지ㅁ인 남원에 백두대간 생태교육장 전시관이 조성되었다. 전시관은 한반도 지도 형상을 본 따 만든 곡선의 전시관 지붕외관에서부터 우리나라의 중심축인 백두대간의 모든 것을 알고 보고 체험 할 수 있는 갖가지 내용물 등이 전시되어 있다. 전시관 주요시설로는 상설전시실, 기획전시실, 호남 최초로 시도하는 5D서클영상관, 카페테리아 등이 있으며 부대시설로는 야외공연장, 곤충온실, 체육시설 등이 있다.",전북 남원시 운봉읍 운봉로 151,063-620-5752
60,전라권,남원 광한루원,"신선의 세계관과 천상의 우주관을 표현한 우리나라 제일의 누원이다.원래 이곳은 조선 세종 원년(1419)에 황희가 광통루라는 누각을 짓고, 산수를 즐기던 곳이었다. 1444년 전라도 관찰사 정인지가 광통루를 거닐다가 아름다운 경치에 취하여 이곳을 달나라 미인 항아가 사는 월궁속의 광한청허부(廣寒淸虛府)라 칭한 후 ‘광한루’라 이름을 부르게 되었다. 1461년 부사 장의국은 광한루를 보수하고, 요천의 맑은 물을 끌어다가 하늘나라 은하수를 상징하는 연못을 만들었다.호수에는 지상의 낙원을 상징하는 연꽃을 심고, 견우와 직녀가 은하수에 가로막혀 만나지 못하다가 칠월칠석날 단 한번 만난다는 사랑의 다리 ‘오작교’를 연못 위에 설치하였다. 이 돌다리는 4개의 무지개 모양의 구멍이 있어 양쪽의 물이 통하게 되어 있으며, 한국 정원의 가장 대표적인 다리이다.1582년 전라도 관찰사로 부임한 정철은 광한루를 크게 고쳐 짓고, 은하수 연못 가운데에 신선이 살고 있다는 전설의 삼신산을 상징하는 봉래·방장·영주섬을 만들어 봉래섬에는 백일홍, 방장섬에는 대나무를 심고, 영주섬에는 ‘영주각’이란 정자를 세웠다. 그러나 정유재란 때 왜구들의 방화로 모두 불타버렸다.현재의 광한루는 1639년 남원부사 신감이 복원하였다. 1794년에는 영주각이 복원되고 1964년에 방장섬에 방장정이 세워졌다. 이 광한루원은 소설 『춘향전』에서 이도령과 춘향이 인연을 맺은 장소로도 유명하여, 1920년대에 경내에 춘향사를 건립하고 김은호 화백이 그린 춘향의 영정을 모셔 놓았다. 해마다 음력 5월 5일 단오절에는 춘향제가 열린다.",전라북도 남원시 요천로 1447,063-625-4861
61,전라권,남원관광지,"지리산의 서북쪽 관문인 남원은 옛날부터 정치,군사상 중요한 거점이었다. 남원은 우리 고전문학 작품에서 가장 널리 알려진 춘향전의 무대이기도 하다. 매월당 김시습의 한문 단편소설인 만복사저포기도 남원을 배경으로 삼고 있다. 남원은 전라북도의 교통 중심지로 지리산, 덕유산, 속리산을 연결하는 관광객의 숙박 및 위락 기능을 맡고 있는 도시이다.88 올림픽 고속도로의 개통을 계기로 경주 보문단지와 제주 중문단지에 견줄만한 관광도시의 틀을 갖추고자 추진한 것이 남원관광지이다. 남원시는 광한루원 앞으로 흐르는 요천 건너 어현동의 산허리를 깎아 40여만평의 터에 남원의 전통을 되살리고 광한루와 만인의총, 황산대첩비지, 실상사, 지리산 그리고 구례 화엄사, 덕유산 등을 연계하는 관광도시를 건설함으로써 관광도시 기반의 확충과 서남권 관광의 중심부 역할을 할 것으로 기대하고 있다.현재 국립민속국악원과 춘향문화예술회관, 춘향테마파크, 향토박물관을 비롯하여 위락시설, 남원랜드, 숙박업소,전문 음식점, 전망대 등의 시설과 주변의 극락암, 덕음암 및 빙고치, 천연동굴들로 연결되는 산책로가 조성되어 있고 넓은 광장 앞을 흐르는 요천수에 고무댐을 만들어 조성한 수상유원지와 함께 훌륭한 관광휴식처를 제공하고 있다. 남원관광지와 광한루원을 연결하는 승월교는 마치 은하수를 건너는 오작교를 연상시키고 가히 환상적인 분위기를 연출한다. 최근에는 임권택감독이 만든 영화 ''춘향전''의 촬영세트도 그대로 보존되어 있다.",전라북도 남원시 양림길 43 (어현동),063-620-6160
62,전라권,남원항공우주천문대,"남원항공우주천문대는 2006년 과학기술부 지방천문과학관 지원 사업으로 선정되어 사업비 46억원에 부지면적 6,532㎡, 지상3층 규모로, 우주항공의 발자취를 한눈에 볼 수 있는 전시실과 항공기 비행 체험을 위한 공간인 항공체험관, 10m 크기의 돔 스크린에 밤하늘과 전천영상을 볼 수 있는 천체 투영실이 있다. 남원의 밤하늘을 관측할 수 있는 600mm 규모의 주망원경과 350mm - 125mm까지의 다양한 구경과 다양한 방식의 망원경을 구비한 보조관측실이 있다. 특히, 주관측실의 600mm 규모의 주망원경은 약 15.7등급까지 수십 만개의 별을 볼 수 있을 뿐 아니라 성운, 성단, 은하 등의 천체까지 관측이 가능하다. 이와 함께 실외에는 1970년대 우리나라 공군의 주력기이었던 팬텀기를 비롯한 다양한 전투기가 전시됐다.남원우주항공천문대는 그 특성상 박물관 또는 전시관과 같이 대단위 인원이 자유롭게 둘러보는 방식이 아닌 실별로 인원을 나눠서 관람하는 시설로 꾸며져 있다. 남원천문대는 태양과 천체관측 4D 영상관람, 가상항공체험, 천문강연 등의 프로그램을 교대로 운영하며 1회 최대 120명을 수용할 수 있다. 특히 남원천문대는 여름방학 캠프를 비롯하여 하반기 현장체험 학습과 다채로운 과학체험교실을 운영, 관람객 유치와 함께 지방과학문화를 선도하는 중추적인 과학관으로 자리매김하고 있다.",전라북도 남원시 양림길 48-63 (노암동),남원항공우주천문대 063-620-6900
63,전라권,순천 드라마촬영장,"2006년에 방영된 드라마, ‘사랑과 야망’의 야외 세트장으로 60-80년대 집들이 재현되어 있으며 드라마 <자이언트>, <에덴의 동쪽> <제빵왕 김탁구>, <허삼관매혈기> 등을 촬영한 장소이다. 골목 골목 다니며 촬영장을 관람하고 독특한 분위기의 사진을 찍기 좋다.",전라남도 순천시 비례골길 24,061-749-4003
64,전라권,순천 낙안읍성,"삼한시대 마한땅, 백제 때 파지성, 고려 때 낙안군 고을터며, 조선시대 성과 동헌, 객사, 임경업장군비, 장터, 초가가 원형대로 보존되어, 성과 마을이 함께 국내 최초로 사적에 지정되었다. 조선 태조 6년(1397) 왜구가 침입하자 이 고장 출신 양혜공 김빈길 장군이 의병을 일으켜 토성을 쌓아 방어에 나섰고 300년 후, 인조 4년(1626) 충민공 임경업 장군이 낙안 군수로 부임하여 현재의 석성으로 중수했다. 다른 지역 성과는 달리 넓은 평야 지대에 1~2m 크기의 정방형의 자연석을 이용하여 높이 4m, 너비3~4m, 성곽 총길이가 1,410m로 동내, 남내, 서내 등 3개 마을 생활근거지를 감싸안은 듯 장방형으로 견고하게 축조되어, 400년이 가까운 지금도 끊긴 데가 없고 웅장하기 이를 데 없다. 지금도 많은 세대가 실제 생활하고 있는 민속 고유의 전통마을로서, 민속학술자료는 물론 역사의 산교육장으로 가치를 인정받고 있다.동문을 비롯 서, 남문을 통해 성 안에 들어서면 사극 촬영장이 아닌가 하는 착각에 빠져들며(사극 용의 눈물, 태조왕건 등 촬영장소) 용인, 제주민속마을과 같은 전시용이나 안동 하회마을과 같이 양반마을도 아닌, 그저 대다수의 우리 서민들이 살아왔던 옛 그대로의 모습이기에 조상들의 체취가 물씬 풍겨 친근한 정감이 넘친다. 남부 지방의 독특한 주거양식인 툇마루와 부엌, 토방, 지붕, 섬돌 위의 장독, 이웃과 이웃을 잇는 돌담은 모나지도, 높지도 않고, 담장이와 호박넝쿨이 어우러져 술래잡기하며 뛰놀던 어린시절 마음의 고향을 연상케 한다.- 성내 135,597㎡- 성외 87,511㎡- 총면적 223,108㎡",전라남도 순천시 낙안면 충민길 30,061-749-8831~3
65,전라권,순천 순천만 국가공원,"세계 5대 연안습지 중 하나인 대한민국 제1호 국가정원이다. 순천만을 보호하기 위하여 조성한 순천만국가정원의 순천 도사동 일대 정원부지 112만㎡(34만 평)에는 나무 505종 79만 주와 꽃 113종 315만 본이 식재됐다. 튤립과 철쭉 등이 꽃망울을 터뜨려 장관을 이루고 있다. 나눔의 숲 주변 3만㎡는 유채꽃 단지로 조성했는데, 5월 중순 일제히 만개해 ''노란 물결''을 이룰 예정이다. 정원 내에 식당이 있으며, 음식 반입도 허용된다. 시는 주요 동선에 팽나무와 느티나무 등 5만 주를 심어 자연 그늘막을 만들었다. 20일 개장과 함께 순천만 정원과 순천문학관 구간(4.64㎞)을 오가는 소형 무인궤도 열차(PRT)도 운행을 시작한다. 정원을 충분히 둘러본 탐방객은 PRT를 타고 문학관으로 이동해 하차한 뒤 순천만 초입 무진교까지 1.2㎞ 거리를 갈대열차로 옮겨타 이동하면 된다. 2023년에 순천만국제정원박람회를 개최 예정이며, 습지생태 체험관광지로 순천만국가정원과 습지를 이어주는 하늘택시 스카이큐브 등 친환경 교통수단도 운영한다.",전라남도 순천시 국가정원1호길 47 (오천동),1577-2013
66,전라권,순천 순천만 습지,"순천시 교량동과 대대동, 해룡면의 중흥리, 해창리 선학리 등에 걸쳐 있는 순천만 갈대밭의 총 면적은 약 15만평에 달한다. 순천 시내를 관통하는 동천과 순천시 상사면에서 흘러 온 이사천의 합수 지점부터 하구에 이르는 3㎞ 쯤의 물길양쪽이 죄다 갈대밭으로 뒤덮혀 있다. 그것도 드문드문 떨어져 있거나 성기게 군락을 이룬 여느 갈대밭과는 달리, 사람의 키보다 훨씬 더 웃자란 갈대들이 빈틈없이 밀생(密生)한 갈대밭이다. 갈대 군락지로는 국내 최대 규모라고 하는데, 갈대의 북슬북슬한 씨앗 뭉치가 햇살의 기운에 따라 은빛 잿빛 금빛 등으로 채색되는 모습이 아주 장관이다. 게다가 때마침 불어온 갯바람에 갈대숲 전체가 일제히 흐느적거리는 풍경은 망망한 바다에 일렁이는 물결처럼 장엄하고 아름답다.갈대밭에 파묻히다시피 한 대대동은 선착장을 중심으로 가장 넓은 군락지를 이루며, 해룡면 상내리의 와온마을은 드넓은 갯벌을 무대로 펼쳐지는 낙조를 감상할 있는 곳으로 관광객과 사진작가들이 즐겨 찾는다. 9.8km의 해안선에 둘러싸인 21.6㎢의 갯벌, 5.4㎢의 갈대밭 등 27㎢의 하구 염습지와 갯벌로 이루어진 순천만 일대에 갈대밭만 무성한 게 아니다. 멀리서 보면 갈대밭 일색이지만, 가까이 다가가 보면 물억새, 쑥부쟁이등이 곳곳마다 크고 작은 무리를 이루어 자리잡고 있다. 그리고 하구의 갈대밭 저편에는 불그스레한 칠면초 군락지도 들어서 있다. 또한 이곳은 흑두루미, 재두루미, 황새, 저어새, 검은머리물떼새 등 국제적인 희귀조이거나 천연기념물로 지정된 11종이 날아드는 곳으로 전세계 습지 가운데 희귀 조류가 가장 많은 지역으로 알려져 있다. 이와 같은 희귀조류 이외에도 도요새, 청둥오리, 혹부리오리, 기러기 등을 포함해 약 140종의 새들이 이곳 순천만 일대에서 월동하거나 번식한다고 한다.",전라남도 순천시 순천만길 513-25 (대대동),1577-2013061-749-6052
67,전라권,여수 오동도,"여수하면 오동도, 오동도하면 동백꽃이 연상될 정도로 동백꽃이 유명한 섬이다. 또한, 한려해상국립공원의 기점이자 종점이기도 하다. 여수 중심가에서 승용차로 10여 분만 가면 닿는 오동도 입구의 주차장에 차를 세워두고 다시 768m 길이의 방파제 길을 15여분 걸으면 오동도에 도착한다. 면적 125,620.4m²(38,000평)의 섬 내에는 동백나무, 시누대 등 200여 종의 가종 상록수가 하늘을 가릴 정도로 울창하다. 또한, 16,529m²(5,000여 평)의 잔디광장 안에는 70여 종의 야생화가 심어진 화단과 기념식수동산 등이 있어 어린이들의 자연학습장으로도 유용하다. 섬 전체를 덮고 있는 3,000여 그루 동백나무는 이르면 10월부터 한두 송이씩 꽃이 피기 시작하기 때문에 한겨울에도 붉은 꽃을 볼 수 있다. 그리고 2월 중순경에는 약 30% 정도 개화되다가 3월 중순경에 절정을 이룬다. 섬 전체에 거미줄처럼 뻗어있는 탐방로는 연인들의 데이트 코스로 인기가 높고, 종합상가 횟집에서는 인근 남해 바다에서 갓잡아 올린 싱싱한 생선을 맛볼 수 있다.오동도 입구에서 섬 안으로 들어가는 교통 수단으로는 동백열차를 비롯해 유람선, 모터보트 등도 있다. 유람선과 모터보트는 오동도입구 선착장에서 출발해 오동 일대 해안의 아름다운 풍광과 병풍바위, 용굴, 지붕바위 등을 감상할 수 있다.",전라남도 여수시 오동도로 222,061-659-1819
68,전라권,여수 해양공원,"여수구항 해양공원은 2001년부터 여수항만청에서 여수구항 해안을 정비하여 시민에게 휴식공간으로 조성한 공원이다. 장군도와 돌산대교, 남해도와 아기섬이 마주 보이며 하멜등대가 이웃하고 있는 이곳은 대형 공연장, 낚시터, 쉼터 등을 갖추었다. 열대풍의 워싱턴 야자수와 조명등이 조화를 이루며, 밤이면 휘황찬란한 돌산대교의 야경이 아름다워 시민과 관광객들로부터 큰 인기를 끌고 있다. 해양공원의 명소는 방파제 끝단에 조선을 유럽에 최초로 소개한 네덜란드인 하멜을 기념하여 세운 하멜등대이다. 하멜은 1653년 제주도에 표류해 1663년 7월 여수의 전라좌수영으로 배치된 후 잡역에 종사하면서 억류 생활을 이어가다 1666년 일본으로 탈출했다. 하멜등대의 위치가 바로 하멜이 우리나라를 떠난 곳이다. 2005년 3월 국제 로터리클럽 창립 100주년을 맞아 여수지역 로터리인들이 뜻을 모아 세웠다.",전라남도 여수시 중앙동 (중앙동),061-659-3860
69,전라권,장흥 편백우드랜드,"정남진 장흥은 서울 광화문에서 정남쪽에 위치한 관광지로 산과 바다와 강이 있는 아름다운 생태고을이다. 그중에서도 초록의 상쾌한 바람과 아름드리 40년생 편백나무가 빼곡히 들어선 정남진 편백숲 우드랜드는 으뜸이라고 할 수 있다. 장흥읍 시내를 한눈에 바라볼 수 있는 억불산 자락에 자리 잡은 우드랜드는 목재문화체험관, 전통한옥 등 아름다운 펜션 단지 생태건축체험장과 전남목공예센터 그리고 치유의 숲과 편백소금집(찜질방) 등을 갖추고 있다.",전라남도 장흥군 장흥읍 우드랜드길 180 (장흥읍),061-864-7911
70,전라권,완도타워,"완도읍 동망산 정상 부근 5만 3천여㎡에 관광 타워와 광장, 산책로, 쉼터 등을 갖춘 일출공원에 건설된 76m 높이의 완도 타워는 완도의 환상적인 일출과 일몰은 물론 완도항과 신지대교 등 야경을 365일 감상할 수 있다.서편제의 촬영지인 청산도, 보길도, 노화도, 소안도, 신지도, 고금도 등을 한눈에 볼 수 있는 곳이며, 맑은 날엔 제주도, 거문도까지도 볼 수 있다. 타워 바로 옆에는 봉수대가 있고, 봉수대 바로 옆으로 동망산을 일주할 수 있는 산책로가 있다.완도타워 1층에는 특산품 전시장, 크로마키 포토존(영상 합성사진), 휴게공간, 휴게음식점 겸 매점, 영상시설 등으로 구성되어 있으며 특히 영성시설에는 ''건강의 섬'', ''Slow City'', ''완도의 소리''를 주제로 완도를 상징하는 여러 가지 영상과 소리로 관람객들에게 완도를 소개하는 공간을 마련하였다.2층에는 이미지 벤치, 포토존, 완도의 인물 등으로 이루어져 있으며 전망데크에는 완도의 인물인 최경주 선수와 장보고 대사를 모형으로 제작하여 관람객들에게 사진촬영을 할 수 있도록 공간을 마련하였다.전망층에는 다도해의 아름다운 모습을 촬영한 영상모니터와 전망쌍안경이 설치되어 있다. 아침 해돋이가 장관이며 저 멀리 펼쳐지는 다도해의 전경과 제주도가 한 눈에 들어온다. 야간에는 완도타워의 경관조명이 켜지고, 매일 환상적인 레이져쇼가 연출된다.",전라남도 완도군 완도읍 장보고대로 330,061-550-6964
71,전라권,완도 신지 명사십리해수욕장,"다도해 해상국립공원의 중심에 위치한 남해안 최고의 해수욕장으로 모래우는 소리가 십리에 걸쳐 들린다하여 울모래등 또는 명사십리(鳴沙十里)로 불리운다. 폭150m 길이 4㎞에 달하는 광활한 은빛 백사장은 경사가 완만하고 수심이 얕아 가족해수욕장으로 인기가 있으며 특히 뜨겁고 부드러운 모래로 하는 모래찜질은 노인들의 퇴행성 관절염과 신경통에 큰 효과가 있는 것으로 유명하다. 주변의 갯바위는 돔과 농어, 광어 등 어족자원이 풍부해 낚시터로도 인기가 높다.",전라남도 완도군 신지면,061-550-6921
72,전라권,완도 정도리 구계등,"정도리구계등 해변에는 억겁의 시간 동안 거센 파도에 닳은 갯돌이 모난 구석 하나 없이 둥그스름하게 연마되어 있다. 크고 작은 돌이 해변뿐만 아니라 바다 아래로 아홉 계단을 이루고 있다 하여 구계등으로 불린다. 약 800m 길이의 자갈밭은 해안선이 감싸고 있는 형태로 장관을 이룬다. 해변 뒤로는 상록수와 단풍나무로 방풍림이 조성되어 있어 해수욕과 산림욕을 동시에 누릴 수 있다. 특히 정도리구계등은 주변의 크고 작은 203개의 섬과 기암절벽 등 멋진 경관으로 이른 아침 일출을 구경하는 장소로 유명하며, 명승 제3호로 지정되었다.",전라남도 완도군 완도읍 정도리 152-1,061-554-1769
73,경상권,대구 근대골목,"대구 근대골목은 대구의 골목을 걸으며 살아있는 역사를 만나는 체험여행이다. 대구는 한국전쟁 당시 다른 지역에 비해 피해가 크지 않았다. 덕분에 전시 전후의 생활상이 비교적 잘 유지된 편이다. 곳곳이 역사적으로 다뤄지는 중요한 장소이면서, 우리네 아버지와 어머니 그리고 할아버지와 할머니의 온기가 느껴지는 곳이기도 하다.","< 계산예가 관광안내소 > 대구 중구 서성로 6-1 (이상화고택 맞은 편, 미소시티아파트 뒤)< 쌈지공원 관광안내소 > 대구 중구 국채보상로102길 66 (만세계단 밑 쌈지공원, 계산성당 맞은 편)< 김광석길 관광안내소 > 대구 중구 대봉동 1-20번지(새주소 달구벌대로 2232) (골목방송스튜디오 안, 방범초소 옆)",053-661-3323053-661-3327053-661-3328
74,경상권,대구 사문진주막촌,"사문진은 과거 경상도 관아와 대구지역 일원에 낙동강 하류로부터 유입되는 물산운송에 중심적 역할을 담당한 낙동강의 대표적인 나루터였다. 1900년 3월 26일 미국선교사 사이드 보탐에 의해 그 당시 “귀신통”이라 불린 한국 최초의 피아노가 유입된 역사적 의미를 지닌 곳이다. 또한, 1932년 일제 강점기 한국 영화계를 대표하는 이규환 감독의 “임자없는 나룻배”촬영지로 추정되는 곳이기도 하다. 주막촌에서는 막걸리를 비롯해 잔치국수, 국밥, 부추전, 두부 등 다양한 먹거리를 판매하고 있어 옛 정취와 함께 사문진 낙조의 풍경을 감상하면서 식사를 즐길 수 있으며, 사문진 나루에서는 낙동강 최초의 유람선과 나룻배를 운항하고 있다.",대구광역시 달성군 화원읍 사문진로1길 40-12,053-632-3338
75,경상권,대구 비슬산군립공원,"비슬산 자연휴양림은 대견봉(1083.59m)을 중심으로 좌우에 조화봉(1,058m), 관기봉(990m)을 거느린 341ha의 면적에 사계절 자연의 아름다움을 전한다. 비슬산 자연휴양림의 가장 큰 특징은 주변의 뛰어난 자연경관은 그대로 활용해 휴식공간과 편의시설을 갖췄다는 것이다. 집채만한 바위가 산기슭에 군락을 이루듯 펼쳐진 수백개의 바위 마당 과 계곡 곳곳에 숨은 듯 자리잡은 기암 괴석은 보는 이의 탄성을 절로 자아낸다. 또한 휴양에 필요한 각종 편의시설이 잘 설치되어있는 것도 장점이다. 아울러 매년 4월 중순에서 5월 초인 비슬산 정상 30만평에 참꽃물결을 이루고 여름엔 안개분수를 이용한 무지개계곡 가을엔 오색단풍의 정취를 맛보는 가을등산, 겨울엔 얼음을 소재로한 동굴, 빙벽, 얼음탑, 썰매장, 고드름 동산 등 오색조명을 이용한 겨울밤은 전국 유일의 자연얼음동산으로 청소년들에겐 방학기간 자연학습관으로 큰 인기이다. 휴양에 숲속의 집과 야영장, 야외강당, 연못, 청소년수련장, 체력단련장, 잔디광장, 사진촬영소, 어린이놀이터, 폭포샤워장, 물놀이터, 삼림욕장 등과 자연석들이 널려 있는 산책로인 탐석로가 있다.",대구광역시 달성군 유가읍 일연선사길 61,053-659-4400~1
76,경상권,부산 해운대해수욕장,"부산의 대표 해수욕장인 해운대해수욕장. 백사장의 길이 1.5km, 너비 30~50m, 평균수심 1m, 면적 58,400㎥의 규모로 넓은 백사장과 아름다운 해안선을 자랑하고 있으며 얕은 수심과 잔잔한 물결로 해수욕장의 최적 조건을 갖추고 있다.''부산'' 하면 제일 먼저 떠올리는 곳이 해운대 해수욕장이라고 할 만큼 부산을 대표하는 명소이며, 해마다 여름철 피서객을 가늠하는 척도로 이용될 만큼 국내 최대 인파가 몰리는 곳이기도 하다. 특히, 해안선 주변에 크고 작은 빌딩들과 고급 호텔들이 우뚝 솟아있어 현대적이고 세련된 분위기의 해수욕장으로 유명하기 때문에 여름 휴가철뿐만 아니라 사시사철 젊은 열기로 붐비고 해외 관광객들에게도 잘 알려져 있어 외국인들이 많이 찾는 곳이다.해운대해수욕장에서는 매년 정월 대보름날의 달맞이 축제를 진행하고 있다. 또한, 매년 겨울 주최하고 있는 북극곰수영대회는 이미 겨울철 대표 축제로 자리잡았다. 이외에도 모래 작품전, 부산 바다 축제 등 각종 크고 작은 행사들이 열리고 있다. 또한, 해수욕장 주변에 동백섬, 오륙도, 아쿠아리움 , 요트경기장, 벡스코 달맞이고개, 드라이브코스 등 볼거리가 많으며, 국내 1급 해수욕장답게 주변에는 일급 호텔을 비롯한 숙박, 오락시설 및 유흥 시설들이 잘 정비되어 있어 편안한 휴식을 즐길 수 있다.",부산광역시 해운대구 해운대해변로 264 (우동),051-749-5700
77,경상권,울산 태화강 십리대숲,"황하의 중국문명, 인더스강의 인도문명, 티그리스강의 메소포타미아문명, 나일강의 이집트문명- 인류 4대 발상지- 모두가 강 하류지역이었으며, 20세기 산업사회를 이룩한 라인강, 한강, 태화강의 기적 역시 강변의 업적인 것이다. 그렇기 때문에 강물은 인류의 젖줄이었으며, 문화의 원천이었다. 울산시민을 길러 준 한없이 포근한 어머니의 품속이였으며, 서정과 낭만을 일깨워주고 정한을 달래어 준 인자한 모정이기도 했던 태화강은 울산의 중심을 가르며 흐르는 강이다.태화강은 울산의 중심을 가르며 흐르는 강으로, 황룡연(용금소)을 굽이 돌아 학성을 지나면서 이수삼산의 이름을 남기고 울산만에서 동해로 들어간다. 동서로 약 36㎢, 남북 28㎢의 유역은그 대부분이 산악지대를 형성하나 강의 양쪽과 하류에는 기름진 평야가 펼쳐져 있으며, 오늘날에는 울산시민의 중요한 식수원이 되어주고 있다. 태화강은 울산의 생명을 유지시켜 주는 혈관이기도 하다.환경부와 문화체육관광부에서 지정한 ‘전국 20대 생태관광지역’으로 지정된 태화강은 화려한 군무로 울산 하늘을 수놓는 떼까마귀를 생태관광의 자원으로 활용하는 방안이 본격 추진되며, 특히 떼까마귀 배설물로 고통받는 주민들을 위해 해당 지역을 생태관광과 연계한 에코마을로 조성할 계획이다.울산 태화교와 삼호교 사이 태화강 양편에는 대숲으로 길이가 무려 4㎞(폭20~30m)에 이르는 태화강 십리대숲이 있다. 이 대숲은 일제강점기에 잦은 홍수 범람으로 농경지 피해가 많아짐에 따라, 주민들이 홍수 방지용으로 대나무를 심은 백사장위의 나무가 오늘의 십리대숲으로 변했다.2011년 5월에 개장된 ‘태화강 국가정원 초화단지’는 총 16만㎡에 꽃양귀비, 수레국화, 청보리, 금계국, 안개초 등 7종 6천여 만 송이의 봄꽃이 만개, 꽃 바다를 이루고 있으며, 단일 규모로는 전국 최대 수변 초화단지다.십리대숲은 태화강을 따라 십리(약4km)에 걸쳐 펼쳐진 대나무 숲으로 오랜세월 자생해 온 대나무를 활용한 자연정원이다. 대나무 사이로 불어오는 강바람과 댓잎의 속삭임이 귀를 간질이는 도심 속 힐링공간이다.밤이면 은하수가 내려앉는 이색적인 야간정원. 색색의 불빛이 대나무와 만나 밤하늘의 은하수를 거니는 기분을 느낄 수 있는 필수 관람코스이다. 또한 체험형 미션 게임 플랫폼인 리얼월드 앱의 야외 방탈출 게임 <십리대숲 비밀클럽>을 통해 십리대숲을 산책하며 추리게임까지 즐길 수 있다.",울산광역시 중구 태화동,052-229-7583
78,경상권,경주 보문관광단지,"도시전체가 노천 박물관이라고 불릴만큼 신라 천년의 영화가 고스란히 보존되어 있는 경주는 유네스코에서 지정한 세계적인 역사도시로 세계 각지에서 찾아오는 관광객의 발길이 끊이지 않는 관광과 휴식을 겸할 수 있는 최적의 여행지이다. 경주보문단지는 경주시가지에서 동쪽으로 약 10여㎞ 정도 떨어진 명활산 옛성터에 보문호를 중심으로 조성되었다. 보문관광단지는 전지역이 온천지구 및 관광특구로 지정되어 있고 도로, 전기, 통신, 상하수도 등 기반시설이 완비되어 있으며, 컨벤션시티로의 육성, 보문관광단지와 연계한 감포관광단지의 개발을 추진하고 있는등 국제적 수준의 종합관광 휴양단지로 자리를 잡아가고 있다.경주 보문단지는 총8,000,036m²(242만평)의 대지에 국제적 규모의 최고급호텔, 가족단위의 콘도미니엄, 골프장, 각종 수상시설, 산책로, 보문호와 높이 100ｍ의 고사분수 등 수많은 위락시설을 갖춘 경주의 사랑방이라고 일컫는 종합관광 휴양지이다. 경주지역에는 특히 벚나무가 많다.어느 특정 지역에만 많은 것이 아니라 도시 전체가 벚꽃천지인 것이 다른 지역과 다르다.4월 개화기때에는 발길 닿는 곳마다 온통 벚꽃 천지이지만 그 중에서 특히 이곳 보문호 주위와 불국사공원 벚꽃이 한층 기염을 토한다. 바람이라도 부는 날이면 꽃송이가 눈발처럼 날려 환상적인 경관을 연출한다.경주 보문관광단지는 우리나라 관광의 시작을 알리는 신호탄이었다.먹고 사는 문제가 중요했던 그 시절을 넘어 문화와 여가에 눈을 돌리게 된 출발점.1970년대 ‘관광’에 주목하면서 경주종합개발계획사업이 수립된 이래, 북군동, 신평동, 천군동을 아우르는 240만여 평의 면적에 종합 관광휴양지 ‘보문관광단지’가 조성되었다.거대 인공호수인 보문호를 중심으로 그 둘레를 따라 특급호텔, 콘도, 컨벤션센터, 레저 및 휴양시설, 테마 관광시설이 속속 들어섰다.",경상북도 경주시 신평동,054-745-7601
79,경상권,고령 대가야 역사테마파크,"대가야의 도읍지였고, 우리나라 최초의 토기와 철기, 가야금 문화를 찬란하게 꽃 피웠던 대가야의 역사를 테마로 하여 조성되는 관광지이다. 고대문화를 첨단시설로 보고 느끼고, 체험할 수 있도록 4D영상관, 유물 및 신비한 나라 대가야 체험관, 대가야 탐방 숲 길 등의 볼거리가 있다. 가야는 기원 전후부터 대가야가 신라에 흡수된 562년까지 존재했던 연맹체로서 우수한 철기 문화를 바탕으로 독자적인 대외 교류를 추진하였으며, 가야금과 같은 훌륭한 문화유산을 남겼다. 최근 가야에 대한 관심이 증대되면서 고구려, 백제, 신라 등의 ''3국 시대''가 아닌 가야를 포함한 ''4국 시대'' 사관에 대한 연구 조사가 활발히 진행되고 있다. 고령군은 가야 문화권에 속해있었으며, 더 나아가 대가야의 중심 도읍지로서 가야시대의 유물과 유적이 많이 출토 되어지고 있다. 대가야의 도읍지로서 가야 문화의 중심 지주적 역할을 하였고, 나아가 가야문화제 행사교류 및 학술적, 사료적 가치 가야문화권의 재정비, 가야문화의 복원 및 전파를 하고자 대가야의 중심 도읍 고령군에 ''대가야 역사 테마 관광지''를 설립하게 되었다.",경상북도 고령군 대가야읍 대가야로 1216,054-950-7005
80,경상권,합천 대장경테마파크,"2011년은 고려대장경 간행 천년을 맞이한 해로, 유네스코 세계문화재에 등록된 고려 고종 23년부터 38년에 이르기까지 16년간에 걸쳐 완성한 고려‘재조대장경’의 우수성과 역사성을 알리고, 새롭게 다가올 천년을 준비하고자 「2011 대장경천년세계문화축전」을 개최하면서 합천군 가야면에 대장경기록문화테마파크를 조성하였다. 대장경기록문화테마파크를 찾는 관람객에게 천년을 이어온 찾는 관람객에게 천년을 이어 온 대장경의 역사적, 문명적 의미를 재조명하고, 인류 공동유산으로서의 가치를 재발현하는 이해와 발견의 공간으로 대장경 조판이전부터 경전의 전래와 결집, 천년을 이어왔던 장경판전의 숨겨진 과학에 이르는 역사의 시공간적 대장정을 감상할 수 있다.",경상남도 합천군 가야면 가야산로 1160,대장경테마파크 055-930-4801매표소055-930-4803
81,경상권,함양 상림공원,"함양은 지리산 아래에 있는 고장으로 예전에는 오지 중의 오지로 꼽혔다. 경상 우도의 유학을 대표하는데다가 산 좋고 물 좋은 땅이라서 함양에는 양반 사대부와 관련된 문화재가 많다. 함양을 고향으로 가진 사람들은 옛친구보다도 더 그리운 것이 하나있다고 한다. 최치원이 이곳 천령군의 태수로 와서 조성했다는 상림이 그것이다. 이곳에서 살았고 살고있는 사람들 그리고 이 곳을 들러본 사람들의 추억과 낭만이 서려있는 곳, 이름 높은 한 지방관의 애민정신이 서려있는 곳. 그곳이 상림이다.상림에는 최치원과 관련된 많은 전설을 간직하고 있다. 그 중에서 가장 흥미로운 것이 상림에는 뱀, 개미, 지네 등의 미물이 살지 않는다는 것이다. 효성이 지극했던 최치원은 어느 날 저녁 어머니로부터 상림에서 뱀을 만나 매우 놀랐다는 얘기를 듣는다. 상림으로 달려가 이후 모든 미물은 상림에 들지마라 하고 외치니 그 후 상림에는 뱀, 개미 등의 미물이 없어졌다는 것이다. 지극히 주술적인 이야기지만 함양에 살고있는 사람들은 지금도 상림에는 뱀과 개미 등이 없다고 주장한다. 상림에서 뱀과 개미 등이 정말 없는지를 확인해 봄직하다.상림의 아름다움은 봄의 신록, 여름의 녹음, 가을의 단풍, 겨울의 설경 등 사철을 통하여 그 절경을 맛볼 수 있다. 특히, 여름철 상림은 숲속 나무 그늘에 돗자리 펴고 누우면, 도심 속의 신선의 정취를 느낄 것이다. 또한 상림의 숲 속에 조성되어 있는 오솔길은 연인들과 가족들의 대화와 사랑의 장소로 이용되고 있는 것을 쉽게 접할 수 있다. 상림에는 함화루, 사운정, 초선정, 화수정 등 정자와 최치원 신도비, 만세기념비, 척화비, 역대군수, 현감선정비군 등의 비석, 이은리 석불, 다볕당 등 볼거리도 다양하다. 또한, 상림에는 120여 종의 낙엽활엽수가 1.6km의 둑을 따라 80~20m 폭으로 조성되어 있어 어린이들의 자연학습원으로도 좋은 곳이다. 통일신라 말에 조성된 우리나라 최초의 인공림이며 여름철 무더위를 식히기 위한 피서지로서의 가치뿐만 아니라 역사와 자연을 배우는 학습의 장으로 그 가치를 더한다.",경상남도 함양군 함양읍 필봉산길 49,055-960-5756
82,경상권,산청 전통한방 휴양관광지,"왕산과 필봉산 기슭에 자리잡은 동의보감촌은 전국에서 처음으로 한방을 테마로 한 건강체험 관광지로서, 엑스포주제관, 한의학박물관 한방기체험장, 한방테마공원, 동의본가, 한방자연휴양림, 본디올한의원, 숙박시설, 약초판매장 등 한방과 관련된 다양한 시설을 갖추어 명실상부한 한방휴양 관광지의 메카로 자리잡은 대한민국 힐링여행 1번지이다.",경상남도 산청군 금서면 동의보감로555번길 45-6,055-970-7216
83,경상권,김해 낙동강 레일파크,"김해 낙동강 레일파크는 낙동강 황단 철교 위를 달리는 레일바이크와 김해시 특산물인 산딸기와인을 전시·판매하는 와인동굴, 새마을호 열차를 활용한 열차카페 그리고 철교 위에 올라가 석양을 바라보며 여유를 즐길 수 있는 철교전망대 등이 조성되어 있어 온 가족이 함께 다양한 체험을 즐길 수 있다.",경상남도 김해시 생림면 마사로473번길 41,055-333-8359
84,경상권,김해 봉하마을,"봉하마을은 본산리 5개 마을 가운데 하나로 주로 벼농사를 하는 전통적 농촌마을이다. 봉화산 봉수대 아래에 있는 마을이라 하여 ''봉하''마을이라고 불린다. 대통령은 봉하마을 사저 옆에 있는 생가에서 태어나 유년시절을 보냈으며, 소년시절에는 읍내의 초등학교와 중학교까지 한시간 남짓을 걸어서 다녔다. 부산에 나가 공부한 고등학교 시절과 군 복무시간을 제외하고, 신혼생활과 제대 후 고시공부도 마을에서 했다. 마을사람 대부분은 오랫동안 봉화마을에 살던 분들이며, 노 대통령과 많은 인연과 추억이 있다",경상남도 김해시 진영읍 봉하로 103-1,055-346-0660
85,경상권,김해 가야테마파크,"김해시민의 일상 문화 휴식 공간. 바쁜 현대인의 일상에 편안한 휴식을 제공하는 일상휴식공간이며 가족/연인/친구와 함께 다양한 문화를 접할 수 있는 복합문화공간입니다. Education + Entertainment 체감형 테마파크. 우리민족의 찬란한 유산인 가야의 역사를 놀이, 체험, 전시를 통해 보고, 듣고, 만지며 배울 수 있는 에듀테인먼트파크입니다.",경상남도 김해시 가야테마길 161 (어방동),055-340-7900
86,경상권,김해한옥체험관,"김해 한옥체험관은 우리나라의 전통 문화와 한옥의 운치를 고스란히 느낄 수 있는 한옥 체험 숙소이다. 안채, 사랑채, 별채에 마련된 객실은 저마다 특징이 달라 취향에 따라 선택할 수 있다. 안채에 마련된 객실은 고가구와 방석, 편지꽂이, 등잔 등 전통 소품으로 장식해 옛 선조들의 일상을 엿볼 수 있다. 널찍한 대청마루는 회의실로 이용 가능하다. 사랑채 객실은 안채에 비해 아담하고 소박하지만 소파와 테이블이 놓인 누마루가 있어 바깥 풍경을 즐기며 휴식을 취하기 좋다. 김해한옥체험관에서 가장 고풍스러운 객실은 별채에 자리한 월파실과 함허실이다. 객실에 들어서면 커다란 병풍이 둘러쳐진 전통 보료(앉는 자리에 늘 깔아두는 두툼한 요)가 눈길을 사로잡는다. 사극에서 봤음직한 옛날 방 풍경을 그대로 옮겨놓은 듯하다. 전통 한옥이지만 모든 객실에 TV, 냉장고, 에어컨, 현대식 화장실을 갖춰 편리함을 더했다. 때때로 전통 체험 프로그램을 운영하며 외국인 여행객을 위해 영어, 일본어 안내 서비스를 제공한다.",경상남도 김해시 가락로93번길 40,055-322-4735~6
87,경상권,고성 당항포관광지,"당항포관광지는 고성군 회화면과 동해면 사이의 당항만에 위치한 임진란때 충무공 이순신 장군의 당항포해전 대첩지로서 선조 25년(1592년) 과 27년(1594년) 두 차례에 걸쳐 왜선 57척을 전멸시킨 곳이다. 이충무공의 멸사 봉공의 혼이 깃든 당항포 대첩지를 길이 후손에 전하고자 군민들이 뜻을 모아 1981년 성금으로 대첩지를 조성하고 1984년 관광지로 지정되어 개발 후 1987년 11월에 개장하였다 . 전국에서 유일하게 이충무공이 두 차례 출전하여 왜군을 전멸시킨 호국 성역지로서 기념사당, 기념관, 대첩탑이 있으며 호수보다 잔잔한 당항만을 따라 긴 해안로의 동백숲길의 정원 같은 관광지로서 모험놀이장,해양레포츠시설 등 가족놀이 시설과 곰 등 동물류의 박제, 공룡알,어패류의 화석 등을 전시한 자연사관과 야생화와 어우러진 자연조각공원 및 수석관으로 구성된 자연예술원, 1억년전 물결자국,공룡발자국화석 등이 골고루 갖추어져 있어 호국정신 함양과 자연교육 및 가족, 단체 휴식 공간으로 활용할 수 있는 다목적 관광지이다.",경상남도 고성군 회화면 당항만로 1116,055-670-4501
88,경상권,거제 수협효시공원,우리나라 수산업 협동조합의 시작을 알린 가조도. 1908년 대한제국의 농공상부대신의 인가를 받은 거제한산가조어기조합과 거제한산모곽전 조합의 설립을 기념하기 위하여 거제시 사등면 가조도에 수협효시공원이 조성되었다.,경상남도 거제시 사등면 가조서로 7,055-639-8340
89,경상권,거제 칠천량해전공원,칠천량해전공원은 임진왜란 당시 조선 수군의 최대 패전으로 기록된 칠천량 해전의 의미를 되새기는 기념공원이다. 칠천량해전은 1597년 7월 원균의 지휘 아래 조선 수군이 도도 다카토라 등이 지휘하는 왜군과 전투를 벌였지만 전함 180척 중 150척이 침몰하면서 1만명의 병사가 숨진 조선 수군 최대의 패전으로 기록되고 있다.,경상남도 거제시 하청면 칠천로 265-39,055-639-8250
90,경상권,거제 포로수용소 유적공원 평화파크,"거제시청이 위치한 신현읍 고현리에 있는 6.25 당시의 가장 큰 포로수용소 유적이다. 거제 계룡산(554m) 동쪽 자락을 따라, 복원된 옛 고현성과 그 옆 시청 건물을 지나면 고현중학교 담벼락 좌측 언덕에 포로수용소 경비대 건물 잔해가 서 있는 모습을 볼 수 있다. 유적관 내에는 전시실, 영상실, 기념품 판매소가 설치되어 있으며, 전시실에는 포로의 발생, 배경, 생활사, 포로 유품, 폭동, 석방 등이 전시되어 있고, 영상실에는 당시 촬영한 필름과 포로 출신 인터뷰를 통하여 10분간 포로에 대한 내용을 상영하며 상징 조형물은 ""전쟁, 분단, 그리고 화합""이라는 제목으로, 한국 전쟁 당시의 상황은 찌그러진 철모에 생긴 총알구멍을 보면 치열했던 전투를 추측할 수 있으며, 전쟁으로 인해 사로잡힌 많은 포로들이 이곳 거제도에 수용되었다.철조망을 걷어내는 국군과 북한군의 모습은 한민족 간의 화합으로 통일을 이룩하고자 하는 강한 의지를 표현한 것이다. 당시 포로수용소 막사는 공산 포로들의 지휘본부 역할을 했던 78수용소의 입구를 그대로 재현시켜 형상화하였고, 64야전 병원은 경비병과 포로폭동등으로 부상당한 포로의 의료를 담당했던 곳이다. 당시 17만여 명의 포로들의 음식을 배급하는 취사장과 그 내부를 볼 수 있는 곳이며, 노천 변소 아래 놓인 변기통은 당시 극렬했던 친공 포로들이 인민재판으로 반동분자를 색출, 그 자리에서 곤봉과 돌멩이로 쳐죽여 토막 난 시체를 담아서 고현만에다 버리는 도구를 사용하기도 했던 비참한 생활상을 상기시키는 것이다. 중공군 포로 막사 앞에 서있는 사자상은 중국 포로들이 의전행사나 기념일이 있을 때 사용하기 위하여 만들어진 사자상이다. 6.25당시 사용하던 M463-7를 비롯하여 헬기, 8미리곡사포, 지휘용 장갑차, 함포 등이 당시 경비본부와 탄약고가 함께 전시되고 있다. 당시의 처참했던 상황을 연상케하는 기존 유적지의 잔해들이 연계되어 볼 수 있다.",경상남도 거제시 계룡로 61 (고현동),055-639-0625
91,경상권,통영 케이블카,"통영 미륵산에 설치된 통영케이블카는 2선(bi-cable) 자동순환식 곤돌라 방식으로 스위스의 최신기술에 의해 설치되었으며, 길이는 1975m다. 평균속도 1초당 4m로 상부역사까지 약 9분이 소요될 예정이며 승객용 곤돌라 47기, 화물용 1기 등 48개의 곤돌라가 순환하게 된다.특히, 친환경적인 설계에 의해 중간지주는 1개만 설치하여, 환경보호는 물론 탑승객에게 아주 편안한 승차감을 제공한다. 또한, 8인승 곤돌라 47대가 연속적으로 탑승객을 운송함으로써 지체 없이 탑승이 가능하며, 가까운 사람끼리 오붓하게 아름다운 한려수도의 경치를 감상할 수 있다. 펫 프렌들리 케이블카 오픈으로 반려동물과 함께 탑승이 가능하다.",경상남도 통영시 발개로 205,1544-3303
92,강원권,춘천 박사마을 어린이 글램핑장,"춘천시가 의암호 수변에 조성한 캠핑 시설로 글램핑장과 오토캠핑장을 갖췄다. 글램핑장은 일반형, 인디언형, 이글루형 등 아이들이 좋아할 만한 모양으로 만들고 모두 침대, 에어컨, TV, 취사도구를 완비했다. 캠핑 기분을 낼 수 있는 캠핑 의자와 캠핑 테이블도 비치했다. 오토캠핑장 경우 텐트 및 일체 장비를 이용객이 직접 준비해야 하며 전기 사용은 가능하다. 시설 내에는 아이들이 뛰놀기 좋은 잔디광장과 놀이터가 있고 도보 이동 가능한 거리에 애니메이션박물관, 토이로봇관, 춘천파크골프장이 위치한다. 글램핑장 바로 앞을 지나는 의암호자전거길을 따라 자전거를 타거나 산책을 즐겨도 좋다. 아이를 동반한 가족들이 자연 속에서 휴식하고 다양한 체험을 즐기며 알찬 시간을 보낼 수 있다.",강원도 춘천시 서면 박사로 770,033-240-1791
93,강원권,춘천 소양강 스카이워크,"강 위로 시원하게 뻗은 소양강스카이워크는 전체 길이가 174m, 그중 바닥이 투명 강화유리로 된 구간이 무려 156m에 이른다. 교량 끝부분에는 원형 광장과 날개처럼 뻗은 전망대를 설치했다. 잠시 머물며 풍경을 감상하기 좋다. 바닥이 투명한 원형 광장에 앉아 기념사진을 남기기도 한다. 원형 광장 맞은편에는 일명 ‘쏘가리상’이라 불리는 조각상이 있다. 정해진 시간에 조각상에서 분수가 나온다. 소양강스카이워크 입구에는 아기자기한 포토존과 테라스를 마련했고 바로 옆에는 춘천 랜드마크라 불리는 소양2교와 소양강처녀상이 자리한다. 일몰 후 화려한 조명으로 물드는 스카이워크 야경도 놓치지 말자.",강원도 춘천시 영서로 2663 (근화동),033-240-1695
94,강원권,춘천 의암호 킹카누,"킹카누 나루터는 국내 유일의 캐나디안 카누 체험으로 사단법인 물길로 장목순 대표가 최로로 12인승 캐나디안 카누를 설계, 제작했으며, 기름 냄새나 소음이 없는 무동력 친환경 레포츠다. 고요한 호수 위 카누에 앉으면 수면과 시야가 수평에 가까워지기 때문에 땅에서 보는 것과 또 다른 세상을 만날 수 있다. 2019 열린 관광지로 선정되어, 19년 11월 휠체어 탑승가능 카누와 진입로 확보, 장애인 화장실 및 촉지?음성안내판 등 누구나 카누를 즐길 수 있도록 열린 관광지 시설을 완비했다. 킹카누 체험은 의암댐, 붕어섬, 하중도, 의암호 등 네 가지 대표 코스로 운영되며, 안전교육을 포함해 1시간30분 남짓 한 시간이 소요된다.",강원도 춘천시 송앙동 684 (송암동),033-251-9600
95,강원권,춘천 남이섬,"남이섬은 [동화나라, 노래의섬]을 컨셉으로 다양한 문화행사, 콘서트 및 전시를 꾸준히 개최해 오고 있으며, 어린이들에게는 꿈과 희망을, 연인들에게는 사랑과 추억을, 문화계 인사들에게는 창작의 터전과 기반을 마련해 주고 있는 자연생태 문화공간이다. 주요시설로는 노래박물관, 그림책놀이터, 왓에버센터, 아트숍, 유니세프라운지 등의 문화시설과 투개더파크, 나눔열차, 스토리투어버스 등의 유기시설이 갖춰져있고 다양한 메뉴를 즐길 수 있는 식음시설, 다양한 테마로 꾸며진 객실과 강변의 독립적인 공간을 가진 별관으로 이루어진 숙박시설 호텔정관루가 있다.",강원도 춘천시 남이섬길 1 남이섬,031-580-8114
96,강원권,횡성 호수길 5구간,"횡성호와 주변 산을 테마로 하여 갑천면 일원에 총 31km, 6코스로 조성했다. 1코스 횡성댐길(횡성댐~대관대리), 2코스 능선길(대관대리~횡성온천), 3코스 치유길(횡성온천~화전리), 4코스 사색길(화전리~망향의 동산), 5코스 가족길(망향의 동산), 6코스 회상길(망향의 동산~횡성댐), 이렇게 테마별로 구성되어 있다. 1.5km 코스는 1시간 내외로 걸을 수 있으며 가장 긴 7.0km 구간은 2시간 반 정도 소요된다. 5코스 가족길에서 풍광이 단연 으뜸인 망향의 동산은 2000년 횡성댐이 건설되면서 수몰된 갑천면의 5개 마을 주민들이 고향을 그리며 잊지 않기 위해 만든 것이다.",강원도 횡성군 갑천면 구방리 512(태기로 구방5길 40),033-343-3432
97,강원권,횡성 유현문화관광지,평화롭고 고즈넉한 풍광에서 한적한 시간을 보내기 좋은 관광지다. 그 중심에는 한국인 신부가 지은 국내 최초의 성당인 풍수원성당이 자리한다. 빨간 벽돌과 종탑 등 고딕 양식으로 지은 성당 건축물은 시대를 초월해 여전히 아름다운 자태를 뽐낸다. 1801년 신유박해 이후 신자들이 피난처를 찾다 정착한 곳으로 국내의 성지 순례지로도 유명하다. 풍수원성당 내외부를 감상한 후 주변을 따라 걸으면 박해 당시 어려웠던 생활상을 보여주는 유물이 전시된 유물전시관을 만날 수 있다.,강원도 횡성군 서원면 경강로유현1길 50,033-340-5986~8033-342-0035(전기 카트 탑승 신청 문의)
98,강원권,속초 아바이마을,"청호동에 형성된 아바이마을은 실향민의 아픔이 진하게 배어나는 곳이다. 6.25 한국전쟁 당시 북에서 내려온 피란민들이 정착하면서 마을이 형성되었는데 특히 함경도에서 온 실향민들이 많이 살고 있다. 아바이는 함경도 사투리로 할아버지와 같이 친근하고 나이가 지긋한 남자를 뜻한다. 아바이마을은 역사의 뒤안길로 사라져가는 실향민들의 삶과 생활상을 엿볼 수 있는 곳이다. 지금은 옛 모습이 많이 사라졌지만 골목길에 대문도 없는 판자집들이 드문드문 남아 있어 있으며 고향에 대한 그리움을 담은 벽화들이 담벼락을 따라 이어져있다. 고기잡이와 막일을 하며 고향에 돌아가기만을 손꼽아 기다렸던 실향민들의 고된 삶과 애환을 느낄 수 있다. 아바이마을 초기에 지어졌던 피란민 가옥들은 속초시립박물관 실향민 문화촌에 복원되어 있다. 아바이마을은 드라마 <가을동화> 촬영지로 이름난 후 사람들이 많이 찾아오기 시작하면서 속초의 대표적인 관광지로 자리매김했다. 식당가 골목에 함흥냉면과 오징어순대, 아바이순대국 등 북한의 향토 음식점들과 카페들이 즐비하게 늘어서 있다.",강원도 속초시 청호로 122-1,033-639-2690
99,강원권,속초 해수욕장관광지,"1976년 처음 개장한 속초해수욕장은 국내 대표적인 해수욕장 가운데 하나다. 속초 시내와 가깝고 고속버스터미널이 도보 거리에 있어 교통이 편리한 것이 장점이다. 속초해수욕장은 바닷물이 맑고 깨끗한데다 수심이 얕고 경사가 완만해 매년 여름철이면 전국에서 모여든 피서객들로 북적해진다. 특히 성수기인 7~8월에는 너른 해변이 발 디딜 틈도 없이 사람들로 가득 찬다. 해수욕장 주변은 음식점과 편의 시설이 잘 갖춰져 있다. 해변 뒤편에는 소나무숲이 우거져 있으며 작은 공원과 산책로도 조성되어 있다. 휴가철이 지난 후에도 해수욕장에는 관광객들의 발길이 끊이지 않는다. 모래사장 곳곳에 설치된 조형물들이 계절에 관계없이 다채로운 볼거리를 선사하기 때문이다. 속초를 형상화한 ‘ㅅㅊ’ 이니셜과 세계 각국의 방향을 표시한 커다란 나침반, 생동감 있는 돌고래 조각 등이 눈길을 사로잡는다. 푸른 바다를 배경으로 한 대형 액자 프레임과 하늘을 향해 뻗은 천국의 계단은 이곳에서 가장 인기 있는 포토존이다.매년 이곳에서는 관광객들에게 더욱 즐거운 추억을 선물하기 위해 버스킹, 여름해변축제, 속초 수제맥주 축제를 즐길수 있다. 여행시기에 맞추어 방문한다면 밴드공연, 음악회 등의 공연행사를 즐길 수 있다.",강원도 속초시 해오름로 190 (조양동),033-639-2027
100,강원권,강릉 연곡해변캠핑장,연곡해변캠핑장에서는 탁 트인 바다 전망과 풍성한 소나무 군락을 동시에 누릴 수 있다. 최근 해변에 자리해 있던 군사시설물을 말끔히 정리해 시야에는 오로지 넓은 바다와 흰 모래사장만 남았다. 연곡해변캠핑장의 가장 큰 묘미는 울창한 소나무 숲속에서 캠핑을 할 수 있다는 것이다. 소나무가 내뿜는 피톤치드 덕분에 산림욕을 즐기기에도 좋다. 캠핑 자리마다 거리가 확보되어 있어 독립적인 캠핑이 가능하다는 것도 장점이다.,강원도 강릉시 연곡면 해안로 1282,033-662-2900
101,강원권,강릉 경포해변,"동해안 최대 해변으로 유명하며 강문동, 안현동에 있고 시내에서 북으로 6km, 경포대에서 1km되는 곳에 동해의 창파를 가득 담고 펼쳐진 명사오리(明沙五里)이다. 모두를 삼키기라도 하려는 듯 밀려오는 파도, 이를 쓸어 안은 길이 1.8km, 면적 1.44㎢의 하얀 모래밭과, 시끄러운 일상을 조용히 차단하는 울창한 송림병풍의 조화가 해변 특유의 아름다움을 자아낸다. 경포대 해변은 백사장이 1.8km에 평균 수심이 1~2m로 적당한 깊이와 완만한 경사 때문에 해마다 많은 인파가 찾아오는 곳이다. 해변 주변에는 소나무 숲이 우거져 해수욕과 산림욕을 동시에 즐길 수 있어 피서지로 안성맞춤이다. 매년 여름마다 경포 해변 상설무대에서 여름밤 예술제가 열려 문화적인 볼거리도 다양하다. 경포호 주변에서 자전거를 대여하여 즐기는 하이킹 또한 하나의 명물이다. 또한, 주변에 설악산,오대산 국립공원이 있어 산, 바다, 계곡 등을 두루두루 돌아 볼 수 있다.",강원도 강릉시 창해로 514 (안현동),033-640-4901
102,강원권,강릉 허균?허난설헌 기념공원,강원도 강릉에 있는 허난설헌 생가터는 조선 시대 최고의 여류문인 허난설헌의 예술혼과 문학 업적을 기리기 위해 마련된 곳이다. 허난설헌은 ''홍길동전''의 저자 허균의 누이로 8세 때부터 천재적인 시재를 발휘하였으나 27세 때 요절했다. 섬세한 필치로 불행한 자신의 처지를 달래는 노래를 했는데 허난설헌이 죽은 후 동생 허균이 작품 일부를 모아 ''난설헌집''을 간행했다. 2001년 복원된 허난설헌 생가터는 아름다운 솔숲을 지나면 나타나는 전형적인 사대부가 한옥의 형태이다. 솟을대문과 야트막한 담장 안에 대청과 사랑채 안채 등이 있고 우물과 방앗간 옆으로 좁은 문을 두어 여성들이 출입할 수 있도록 하여 남녀의 구분을 두었다. 안에는 허균과 허난설헌의 영정이 모셔져 있고 매화나무가 아름답게 자란다. 강원도 문화재 자료로 지정된 곳이다. 생가를 비롯해 허균·허난설헌 기념관과 기념 공원을 함께 둘러볼 수 있다.,강원도 강릉시 난설헌로193번길 1-16 (초당동),033-640-5119
103,강원권,강릉 커피거리,"강원도 강릉시는 국내 지방자치단체 단위에서는 최초로 커피 축제를 개최한 곳으로 1세대 바리스타인 커피 명장, 커피 박물관, 커피 거리, 커피 공장, 바리스타 아카데미 등 다양한 커피 콘텐츠를 구축하고 있을 뿐만 아니라 커피 전문점 대부분이 로스팅을 하는 로스터리 카페로 성업 중인 명실상부한 커피도시다.1980년대 초부터 커피 명소로 명성을 얻어온 안목 카페거리는 1990년대 들어서면서부터 국내 최고의 커피 명장들이 하나 둘 씩 모여들어 관광 명소로 떠올랐다고 로스팅 기계를 들여놓고 자신만의 손맛을 낸 원두를 볶아내는 커피숍이 늘어나면서 전국 커피 마니아들의 눈과 입을 사로잡기 시작하여 이 곳은 전국적인 명소로 거듭났다 커피거리로 자리매김한 안목해변 일대에서는 바다를 그윽하게 바라보며 직접 내린 커피 한잔을 맛볼 수 있는 카페들이 계속 늘어나고 있다 커피축제를 개최하는 등 최근 커피 도시로 급부상한 강릉지역의 커피숍이 횟집 수에 근접하는 등 강릉이 우리나라를 대표하는 커피 도시로 성장하고 있다.원래 강릉커피거리는 자판기커피가 유명했던 곳이다.자판기 커피 한잔을 마시며 한적한 안목해변을 벗삼을 수 있어서 좋았던 시절이 있엇다.그렇게 탄생된 강릉커피거리이다.강릉커피거리에 이는 커피 전문점들은 저마다 아름다운 경치를 벗삼아 이색 테마 매장들을 선보이며 강릉을 찾는 관광객들을 유혹하고 있다.강릉커피거리에는 드립커피뿐 아니라 수제 디저트까지 있어브런치를 즐기기에도 안성맞춤인곳이다.유명 프랜차이즈 커피 전문점까지 입점해 있어 멋진 동해바다를 감상하며 향긋한 커피도 즐길 수 있다.어느 상점을 들어가느냐 하는 것은 여러분들으 몫이다.얼마전 티비 방송프로에서도 소개되어 더욱 유명해진 곳에서 강릉 먹거리들도 즐기면서 따뜻한 커피한잔도 즐길 수 있는 여유를 가져볼 수 있다",강원도 강릉시 창해로14번길 20-1,033-640-4537강릉시 관광안내소 033-640-4531
104,강원권,강릉 통일공원,"세계유일의 분단국이며, 분단의 허리 강원도.강원도 해안 중심도시인 강릉 안인진과 정동진에는 민족대립의 현장이며 전쟁의 슬픔이 숨어 있는 곳이다. 1950.6.25 북한군이 최초로 남침하여 상륙한 곳이며, 1996.9.18 북한잠수함이 침투하여 온 국민에게 전율을 느끼게 한곳이다.6.25전쟁과 9.18북한잠수함, 무장공비 침투 등의 아픔을 안고 있는 이곳에 평화통일을 염원하면서 국가안보의 중요성을 강조하고 안보의식을 고취하고자 함정전시관과 안보전시관으로 구성된 국내 육,해,공 3군의 군사장비와 북한잠수함 등을 한 곳에서 볼 수 있는 대규모 전시공원인 강릉통일공원을 조성하였다.그러나 21년 10월, 함정전시관에 전시된 퇴역함정 ''전북함''은 시설 노후와 안전사고 우려로 인해 해체식을 진행, 역사 속으로 사라지게 되었다. 대신 그 자리에는 차박을 즐길 수 있는 오토캠핑장이 22년 8월경에 들어설 예정이다. 통일공원 조성의 계기가 된 북한 잠수함과 옛 전투기 등의 시설은 그대로 유지된다.",강원도 강릉시 강동면 율곡로 1616,강릉통일공원 안보전시관 033-640-4469
105,강원권,강릉 솔향수목원,"강릉솔향수목원은 금강소나무 원시림을 간직한 칠성산 자락, 강릉에서 경치 좋기로 이름난 용소골에 들어섰다. 훌륭한 산과 계곡이 있으니 수목원 터로 부족함이 없다. 78만 5,000㎡의 면적에 23개 테마로 꾸몄다. 비비추원, 수국원, 암석원, 약용식물원, 원추리원, 염료식물원, 창포원, 철쭉원 등을 따라 계절별로 변화하는 다양한 풍경을 관람할 수 있다. 그중 자생 수종인 금강송이 쭉쭉 뻗은 ‘천년숨결 치유의 길’이 수목원을 대표하는 산책 코스다.",강원도 강릉시 구정면 수목원길 156,033-660-2322
106,강원권,강릉 정동진 모래시계공원,"모래시계공원은 동해 바다와 산, 정동진 2리 마을을 배경으로 아담하게 꾸며져 있다. 한가운데에는 모래시계가 있고, 그 주위에는 소나무가 있다. 그리고 바다 쪽으로는 벤치가 자리잡고 있다. 모래시계공원 바로 앞은 정동진해수욕장과 이어져 있다. 모래시계는 해시계나 물시계처럼 현재시각을 알려주는 시계는 아니고, 중력에 의해 떨어지는 모래의 부피에 의해 시간의 경과를 재는 장치다. 그래서 모래시계는 4시간, 2시간, 1시간, 30분짜리 또 배의 속력을 측정하기 위한 28초,14초 짜리 등도 있는데 이러한 것 19세기경까지 널리 사용되었으며 오늘날에는 달걀을 삶는 시간을 재는데 쓰는 3분 짜리도 있다. 이런 모래시계는 일반적으로 8세기 경 프랑스의 성직자 리우트프랑이 고안한 것이라고 한다.정동진 모래시계공원은 1999년 강릉시와 삼성전자가 새로운 천년을 기념하기 위해 총사업비 12억 8천만원을 들여 조성했다. 모래시계공원 안의 모래시계는 지름 8.06m, 폭 3.20m, 무게 40톤, 모래무게 8톤으로 세계 최대의 모래시계이며, 시계 속에 있는 모래가 모두 아래로 떨어지는데 걸리는 시간은 꼭 1년이 걸린다. 그러면 다음 해 1월1일 0시에 반바퀴 돌려 위 아래를 바꿔 새롭게 시작하게 된다. 정동진 모래시계는 허리가 잘록한 호리병박 모양의 유리그릇이 아니고 둥근 모양인 것은 시간의 무한성을 상징하기 위함이다. 또 둥근 것은 동해바다에서 떠오르는 태양을 상징하고, 평행선의 기차레일(길이 32미터)은 영원한 시간의 흐름을 의미한다.흘러내리는 모래와 쌓이는 모래는 미래와 과거의 단절성이 아닌 영속성을 갖는 시간임을 알린다. 또 주위에 있는 12지상은 하루의 시간을 알려 주기 위함이다. 12지상은 간지에서 12지지를 말하는데 간지는 하늘과 땅의 우주원리를 방위와 시간에 응용했다.12지지는 쥐(子), 소(丑),호랑이(寅),토끼(卯),용(辰),뱀(巳),말(午),양(未),원숭이(申),닭(酉),개(戌),,돼지(亥)등 12짐승을 각각 나타낸다. 또한 시간에는 자시는 23시~01시, 축시는 01~03, 인시는 03~05시, 묘시는 05시~07시, 진시는 07시~09시, 사시는 09시~11시, 오시는 11시~13시,미시는 13시~15시, 신시는 15~17시, 유시는 17시~19시, 술시는 19시~21시, 해시는 21시~23시를 가리킨다.이렇게 우리의 전통적인 시간은 2시간 단위로 시각을 알렸다.농경사회에서의 시간의 단위는 오늘날처럼 분, 초의 단위로 세분화된 것이 아니어서 여유있는 시간의 단위를 사용한 것이다. 모래시계를 세운 정동진은 서울 광화문 앞에 있는 도로원표석을 깃점으로 정동쪽에 있는 고을이다.그래서 하지 때는 한반도 제일 동쪽으로 해가 뜨는 고을이다.",강원도 강릉시 강동면 헌화로 990-1,033-640-4533
107,강원권,동해 망상해수욕장,"망상해변은 묵호항에서 북쪽으로 3km쯤 떨어져 있는 국민관광지로서 부근의 옥계, 경포 등과 함께 동해안의 유명 관광지 이다. 넓은 백사장과 울창한 송림(수령 20~30년), 청정한 해수, 얕은 수심(경사도 2~4도, 평균 물 깊이 0.5~1.5m) 등 동해안 해수욕장 중 가장 넓고 쾌적한 환경을 갖추었으며, 주차장, 야영장, 샤워장, 공중화장실 등과 각종 편의시설이 잘 갖춰져 있어 관광객들이 이용하기에 편리하다.해수욕장 바로 위에는 오토캠핑장이 있어 가족단위 관광객들에게 인기가 있다. 인근 천곡 자연동굴, 무릉계곡과 추암 촛대바위를 비롯하여 남쪽으로 간이 해수욕장(노봉, 대진, 어달, 한섬, 감추, 추암 해수욕장)이 즐비하다. 인근의 묵호항과 더불어 강릉~삼척을 잇는 해안 관광지 중 하나이며 오징어,소라, 해삼, 멍게, 광어 등의 풍부한 해산물로 풍요로움과 넉넉함이 묻어난다.",강원도 동해시 동해대로 6270-10 (망상동),033-530-2800
108,강원권,정선 삼탄아트마인,"삼탄아트마인은 1964년에서 2001년까지 삼척탄좌가 있던 자리다. 그 터 위에 옛 폐광의 흔적을 보존하며 문화예술의 가치를 입혔다. 그래서 그 이름 안에 ‘아트(예술 art)’와 마인(광산 mine)이 공존한다. 제일 먼저 만나는 장소는 삼탄아트센터 본관이다. 과거 삼척탄좌 시절 사무공간과 광원들의 공동샤워실, 수직갱을 움직이던 운전실이 있던 장소다. 이를 활용해 레지던시룸, 현대미술관 CAM1, 삼탄아트마인자료 등으로 꾸몄다. 그 가운데 옛 광원이 몸을 씻던 샤워장과 장화를 씻던 세화장 등은 마인갤러리로 변신했다. 덕분에 아주 특별한 전시 풍경을 연출한다. 레일바이뮤지엄 또한 삼탄아트마인의 자랑이다. 외부에서 진입할 때 가장 먼저 보이는 53m의 권양기가 위치한 건물이다. 권양기는 광원들이 지하 탄광으로 이동할 때 사용하던 산업용 엘리베이터다. 건물 내부는 당시의 현장을 그대로 보존해 옛 삼척탄좌의 분위기를 가장 잘 느낄 수 있다. 야외공원에는 탄광의 기계 제작 공장동을 개조한 레스토랑823L, 중앙압축기실로 쓰이던 원시미술박물관이 위치한다. 옛 탄광과 예술의 조화가 절묘해 현재와 과거의 시간을 넘나드는 듯하다.* 소장품현황 : 세계 150개국 이상에서 모든 미술품 컬렉션, 그림 조각 등 10만점 이상 소장* 할인정보 : 광부, 지역할인, 유공자 50% 할인, 프로모션 30% 할인",강원도 정선군 고한읍 함백산로 1445-44,033 591-3001
109,제주권,제주 사려니 숲길삼나무숲,"사려니숲길은 제주의 숨은 비경 31곳 중 하나로, 비자림로를 시작으로 물찻오름과 사려니 오름을 거쳐가는 삼나무가 우거진 숲길이다. 사려니오름까지 이어지는 숲길이기 때문에 사려니숲길이라고 불린다. ‘사려니’는 ‘신성한 숲’ 혹은 ‘실 따위를 흩어지지 않게 동그랗게 포개어 감다’라는 뜻으로 숲길을 거닐면 상쾌한 삼나무 향에 포개진 듯한 느낌을 받을 수 있다. 빽빽한 삼나무뿐만 아니라 졸참나무, 서어나무, 때죽나무, 편백나무 등 다양한 수종이 서식하고 있다. 다양한 수종이 서식하기 때문에 오소리와 제주족제비를 비롯한 포유류, 팔색조와 참매를 비롯한 조류, 쇠살모사를 비롯한 파충류 등의 보금자리가 되기도 한다. 사려니숲길은 본래 숲의 모습이 많이 훼손되지 않아 트래킹을 좋아하는 여행자들이 즐겨 찾는다. 지난 2002년 유네스코가 지정한 제주 생물권 보전지역(Biosphere Resev)이기도 하다. 숲보호를 위해 자연휴식년제로 ''물찻오름''은 탐방을 제한했었으나, 한시적으로 이곳을 개방하는 <사려니숲 에코힐링(Eco-Healing)> 행사가 열리기도 했다.",제주특별자치도 서귀포시 표선면 가시리 붉은오름 입구,사려니숲길 탐방안내소 064-900-8800
110,제주권,제주 서귀포 치유의숲,"산림욕은 어떻게 해야 더 효과적일까?' 이런 막연한 의문이 든다면 서귀포 치유의 숲에서 전문적인 산림 체험 프로그램을 경험해보길 바란다. 서귀포 치유의 숲에는 총 10개의 테마길이 있다. 노고록숲의 '가멍오멍숲길'을 시작으로 나머지 9개의 길이 나뉜다. 잣성을 옆에 두고 걷는 '가베또롱 치유숲길', 단풍나무와 도토리가 가득한 '엄부랑 치유숲길' 등이 그것이다. 마지막으로 힐링센터에서는 사전 예약을 통해 산림 치유 지도사와 함께 다양한 치유 프로그램을 경험해볼 수 있다. 치유의 샘에서 발을 씻고 차를 나누어 마시며 명상을 하는 등 완전한 휴식을 경험할 수 있다.",제주특별자치도 서귀포시 산록남로 2271,064-760-3067~8
111,제주권,제주 붉은 오름 자연휴양림,"붉은오름자연휴양림은 자연을 전혀 훼손하지 않은 자연 그대로의 휴양림으로 서귀포시와 제주시 경계 지점 남조로변에 있다.총 190ha의 광활한 면적 아래 40~50년 된 곰솔과 삼나무가 숙박동 좌· 우에 자리 잡고 있으며 숙박동 뒤편으로는 고사리류를 비롯한 활엽수림대의 곶자왈이 널리 분표되어 있다. 또한, 외곽지역에는 노루, 꿩, 복수초, 단풍나무, 구찌뽕나무, 참식나무 등 다양한 동· 식물들이 분포하고 있다.한라산 표고버섯, 벌꿀 생산지가 곳곳에 산재하고 있어 자연관광지로 최적의 조건을 갖추고 있으며, 제주도 중산간의 전형적인 전경과 독특한 풍경이 어우러져 모든 이의 고향처럼 아늑함과 더불어 평화롭고 정겨움을 줄 수 있는 곳으로 인근에 붉은오름, 물찻오름, 가문이 오름과 사려니 숲길 등이 자리 잡고 있다.주요 접근도로는 지방도 1118호선(남조로)이 있으며, 북쪽에 국가지원지방도 97호선(번영로), 지방도 1112호선(비자림로), 남쪽에 1116번 중산간도로가 있다.위와 같은 접근로로 제주시에서 약 40여 분, 서귀포시에서 약 45분 정도가 소요되고, 제주도 서쪽에서도 1시간 거리에 있으므로 제주도 전 지역에서 접근이 용이하다. 뿐만 아니라, 전국 유명관광지인 성산일출봉, 만장굴, 비자림, 돌문화공원, 성읍민속마을, 삼다수 생산 공장이 인근 지역에 있다. 휴양림 내에는 숲속의 집, 산림문화휴양관, 생태연못, 산림욕장, 잔디광장, 세미나실, 방문자센타, 맨발로 거닐 수 있는 산책로와 야자수 매트 탐방로 등 다양한 시설을 갖추고 있다.",제주특별자치도 서귀포시 표선면 남조로 1487-73,064-760-3481
112,제주권,제주 서귀포 천지연폭포,"그 이름만큼이나 빼어난 서귀포 천지연(天地淵)폭포는 조면질 안산암의 기암절벽이 하늘높이 치솟아 마치 선계(仙界)로 들어온 것같은 황홀경을 느끼게 한다. 천지연계곡에는 천연기념물로 지정된 담팔수 자생지 이외에도 가시딸기, 송엽란 등의 희귀식물과 함께 계곡 양쪽에 구실잣밤나무, 산유자나무, 동백나무 등의 난대성 식물들이 울창한 숲을 이루고 있어 천연기념물로 지정 보호되고 있다. 특히 담팔수나무는 담팔수과의 상록교목으로 우리나라에서는 안덕계곡, 천제연, 효돈천 등 제주도 남쪽해안이 섶섬, 문섬 등이 그 북한지이다.이 천지연난대림지대를 따라 나 있는 산책로를 1㎞쯤 걸어 들어가면 웅장한 소리를 내며 떨어지는 폭포와 만나게 된다. 서귀포항 어귀에서 길게 뻗은 오솔길에는 꽃치자, 왕벚나무,철쭉 등의 아름다운 꽃나무와 더불어 정취어린 돌징검다리, 숲사이 군데군데 마련된 쉼터가 최상의 데이트 코스를 연출해주므로 신혼부부나 연인들 사이에 무척 인기가 높다. 또한 폭 12m, 높이 22m에서 세차게 떨어져 수심 20m의 호(湖)를 이루는 천지연의 맑고 깊은 물은 천연기념물로 지정되었으며, 무태장어(천연기념물)의 서식지로서도 유명하다. 야간조명시설이 돼있어 11~4월에는 밤 10시까지 5~10월까지는 밤 11시까지 야간관광이나 데이트를 즐길 수 있는 코스로 최적지이다. 매년 서귀포칠십리축제가 이곳을 중심으로 화려하게 펼쳐지기도 한다.* 천지연 얼굴최근 천지연 물 위에 비쳐진 바위의 형상이 사람 얼굴을 닮아 화제가 되고 있다. 천지연 기원의 다리 상류의 보 위에 자리잡고 있는 이 바위의 형상이 그 자체로는 흔한 바위지만 물 위에 비친 형상과 합쳐지면 사람의 얼굴처럼 보인다고 한다. 왼쪽에서 보면 큰 어른 얼굴이고 오른쪽에서 보면 다소곳한 어린 아기의 얼굴로 보여진다고 한다. 관광지관리사무소는 ""바위의 형상만 보면 사람의 얼굴이라는 생각이 안들지만 마치 물감을 도화지에 뿌리고 반으로 접으면 양쪽에 똑같은 그림이 나오는 것처럼 물위에 비친 형상까지 합쳐서 보면 신기하게도 사람의 얼굴임을 알 수 있다""며 ""그 모습도 오전보다는 해가 서쪽으로 기우는 오후가 되면 더욱 뚜렷이 나타난다""고 천지연을 찾는 관광객들에게 설명하고 있다.* 무태장어 서식지천연기념물인 무태장어는 회유성 어류로서 하천이나 호수의 비교적 깊은 곳에서 산다. 육식성이며, 깊은 바다에서 산란한다. 몸은 황갈색이고 배는 백색이며, 온몸에는 흑갈색 반문이 흩어져 있다. 낮에는 소에 숨고 밤에는 얕은 곳으로 나와 먹이를 잡아 먹는데 큰것은 길이가 2m, 무게가 20㎏에 이른다. 국가에서는 무태장어가 서식하는 천지연 일대 무태장어 서식지를 천연기념물로 지정보호하고 있다.* 서귀포층의 패류화석천지연하류 서남쪽 해변에 위치한 화석지대로서 제 3기인 플라이오세에 속하는 해성층이 발달하여 있는데 이것이 서귀포층이다. 이 지층은 주로 회색 또는 회갈색을 띤 사암류 및 점토로 구성되어 있고 조기패류와 동물화석들이 섞여 있다.",제주특별자치도 서귀포시 천지동,064-710-3945
